{"type":"FeatureCollection","features":[{"type":"Feature","properties":{"c":1},"geometry":{"type":"MultiLineString","coordinates":[[[-154.97503,19.54343],[-154.97631,19.54505],[-154.98027,19.54829],[-154.98772,19.55529],[-154.99026,19.55797],[-155.00156,19.57264],[-155.00472,19.57805],[-155.00711,19.58052],[-155.0099,19.58468],[-155.01378,19.58882],[-155.01802,19.59477],[-155.02738,19.60591],[-155.02904,19.60844],[-155.0297,19.61032],[-155.02994,19.61229],[-155.02981,19.61709],[-155.03037,19.6203],[-155.03475,19.63066],[-155.03569,19.63173],[-155.03695,19.63245],[-155.03996,19.63271],[-155.04085,19.63503],[-155.04568,19.64246],[-155.05164,19.65073],[-155.06324,19.66829],[-155.06401,19.67032],[-155.06447,19.67263],[-155.06594,19.69158],[-155.06579,19.69401],[-155.06417,19.70401],[-155.06416,19.72241],[-155.06432,19.72257],[-155.06436,19.70354],[-155.06593,19.69405],[-155.06609,19.69183],[-155.06461,19.67262],[-155.0643,19.67072],[-155.06353,19.66834],[-155.0621,19.66572],[-155.05147,19.64978],[-155.04137,19.6353],[-155.04031,19.63328],[-155.03989,19.63138],[-155.03981,19.62677],[-155.04016,19.62456],[-155.04131,19.62226],[-155.04733,19.61375],[-155.04791,19.61241],[-155.04826,19.60991],[-155.0478,19.6124],[-155.04723,19.61369],[-155.04127,19.62207],[-155.04005,19.62453],[-155.03967,19.62676],[-155.03971,19.63088],[-155.03994,19.63262],[-155.03792,19.63254],[-155.03701,19.63231],[-155.03579,19.63162],[-155.03489,19.63059],[-155.03071,19.62089],[-155.03023,19.61908],[-155.02998,19.61673],[-155.0302,19.61693],[-155.03001,19.61721]],[[-155.08189,19.72347],[-155.07864,19.72306],[-155.07848,19.72283],[-155.07857,19.72223],[-155.07862,19.72212],[-155.07862,19.72276],[-155.0788,19.72294],[-155.08313,19.72383],[-155.08418,19.72433],[-155.08544,19.72532],[-155.08833,19.72959],[-155.0911,19.735],[-155.09129,19.73751],[-155.09045,19.74272],[-155.09039,19.7441],[-155.09137,19.7488],[-155.09164,19.75208],[-155.09238,19.75482],[-155.0909,19.7629],[-155.09088,19.76436],[-155.09366,19.77427],[-155.09381,19.77558],[-155.09181,19.78608],[-155.09187,19.78779],[-155.09275,19.78975],[-155.09531,19.79208],[-155.09582,19.79282],[-155.10016,19.80536],[-155.10477,19.81644],[-155.10494,19.81724],[-155.10284,19.84653],[-155.10002,19.85514],[-155.09969,19.85684],[-155.09975,19.85858],[-155.10082,19.86373],[-155.10127,19.86467],[-155.10222,19.86592],[-155.10609,19.86944],[-155.10795,19.8726],[-155.1097,19.87408],[-155.11413,19.87726],[-155.11937,19.88296],[-155.12048,19.88464],[-155.12199,19.88955],[-155.1229,19.89133],[-155.12406,19.89268],[-155.12806,19.89648],[-155.1324,19.90376],[-155.13487,19.90605],[-155.13672,19.90866],[-155.13745,19.9102],[-155.13808,19.91219],[-155.1388,19.91332],[-155.1399,19.91439],[-155.14889,19.92104],[-155.14976,19.92156],[-155.15139,19.92215],[-155.15251,19.92289],[-155.15408,19.9254],[-155.15737,19.92835],[-155.16027,19.93236],[-155.1611,19.93314],[-155.16215,19.93384],[-155.16591,19.93564],[-155.16951,19.93909],[-155.17197,19.94007],[-155.17332,19.94088],[-155.17828,19.94637],[-155.18394,19.95],[-155.18548,19.95079],[-155.18734,19.95271],[-155.18817,19.95327],[-155.19201,19.95468],[-155.19261,19.95463],[-155.19366,19.95381],[-155.19597,19.95107],[-155.19666,19.95081],[-155.19748,19.95103],[-155.19789,19.95152],[-155.19798,19.95208],[-155.1971,19.95423],[-155.197,19.95634],[-155.19798,19.95938],[-155.19921,19.96088],[-155.20202,19.96355],[-155.20473,19.96503],[-155.20836,19.96918],[-155.20975,19.97044],[-155.21135,19.97136],[-155.21958,19.97518],[-155.22119,19.97629],[-155.22632,19.98073],[-155.23347,19.98447],[-155.24105,19.98612],[-155.24201,19.98669],[-155.24361,19.9882],[-155.24414,19.98843],[-155.24512,19.98826],[-155.2475,19.98642],[-155.24823,19.98644],[-155.24887,19.98674],[-155.24935,19.98726],[-155.24945,19.98801],[-155.24916,19.98854],[-155.24796,19.98923],[-155.24756,19.98971],[-155.2472,19.99091],[-155.24747,19.99158],[-155.25955,20.00358],[-155.26082,20.00377],[-155.26432,20.00193],[-155.26516,20.00207],[-155.26542,20.00249],[-155.26532,20.00297],[-155.26399,20.004],[-155.26357,20.00484],[-155.26384,20.00595],[-155.26465,20.00667],[-155.2713,20.00836],[-155.27501,20.01046],[-155.27665,20.01104],[-155.27819,20.01113],[-155.28536,20.00994],[-155.28807,20.0099],[-155.29238,20.01152],[-155.29904,20.01341],[-155.30708,20.01637],[-155.309,20.01629],[-155.31185,20.01518],[-155.31273,20.01501],[-155.31421,20.01504],[-155.31534,20.0153],[-155.33455,20.0257],[-155.33685,20.02657],[-155.34811,20.03001],[-155.35034,20.0309],[-155.35776,20.03461],[-155.36716,20.03871],[-155.37011,20.04019],[-155.37124,20.04087],[-155.37298,20.04261],[-155.37437,20.04337],[-155.39979,20.05249],[-155.41688,20.06277],[-155.41889,20.06356],[-155.42786,20.06491],[-155.43815,20.06734],[-155.44279,20.07003],[-155.44458,20.07059],[-155.44579,20.07055],[-155.45406,20.0684],[-155.45579,20.06818],[-155.45713,20.06836],[-155.4651,20.07126],[-155.46714,20.07166],[-155.48185,20.07025],[-155.48426,20.07029],[-155.49367,20.07118],[-155.49529,20.07095],[-155.50524,20.06786],[-155.51825,20.0662],[-155.52042,20.06556],[-155.52816,20.06231],[-155.52973,20.06192],[-155.5314,20.06187],[-155.53789,20.06259],[-155.53944,20.06241],[-155.54079,20.06186],[-155.55093,20.0543],[-155.55319,20.05313],[-155.57107,20.04947],[-155.58782,20.04553],[-155.59825,20.04237],[-155.60784,20.0408],[-155.61993,20.03755],[-155.63259,20.03477],[-155.63438,20.03401],[-155.63953,20.03031],[-155.6457,20.02862],[-155.65194,20.02779],[-155.66146,20.02457],[-155.66415,20.02414],[-155.67151,20.01848],[-155.67344,20.01658],[-155.67574,20.01305],[-155.6761,20.0119],[-155.67737,19.99998],[-155.6764,19.99453],[-155.67688,19.9876],[-155.67717,19.97574],[-155.67803,19.9737],[-155.67869,19.96942],[-155.67949,19.96737],[-155.68029,19.96415],[-155.6813,19.95249],[-155.68054,19.94904],[-155.68038,19.94651],[-155.68057,19.94554],[-155.68309,19.94186],[-155.68407,19.94101],[-155.68589,19.94002],[-155.68649,19.93942],[-155.68677,19.93876],[-155.68692,19.93736],[-155.6874,19.93606],[-155.68948,19.93192],[-155.68988,19.93039],[-155.69418,19.92254],[-155.69676,19.91836],[-155.70139,19.91451],[-155.70491,19.90813],[-155.70587,19.90417],[-155.70659,19.90226],[-155.70986,19.89523],[-155.7402,19.84741],[-155.74126,19.84652],[-155.74269,19.84585],[-155.76421,19.84007],[-155.77006,19.83762],[-155.77118,19.83755],[-155.77483,19.83804],[-155.77788,19.83812],[-155.78533,19.83565],[-155.78703,19.83451],[-155.78857,19.83387],[-155.78998,19.83366],[-155.79594,19.83377],[-155.80111,19.83128],[-155.80223,19.83111],[-155.81148,19.83089],[-155.81655,19.82997],[-155.83536,19.82052],[-155.84265,19.81616],[-155.8431,19.81567],[-155.84387,19.81419],[-155.84394,19.81299],[-155.84353,19.81206],[-155.84244,19.81099],[-155.84202,19.80954],[-155.84055,19.80851],[-155.84055,19.80752],[-155.8409,19.80712],[-155.84246,19.80609],[-155.84456,19.80497],[-155.85085,19.79997],[-155.85557,19.79873],[-155.87604,19.79194],[-155.89872,19.78511],[-155.90367,19.78299],[-155.91067,19.78031],[-155.91737,19.77602],[-155.91859,19.77561],[-155.92236,19.77485],[-155.92403,19.77421],[-155.92506,19.77357],[-155.92695,19.77192],[-155.93104,19.77006],[-155.9329,19.76856],[-155.93556,19.76814],[-155.93929,19.76651],[-155.95896,19.76189],[-155.95999,19.76152],[-155.96146,19.76057],[-155.96586,19.75647],[-155.96749,19.75566],[-155.97025,19.75488],[-155.97175,19.75396],[-155.97323,19.75225],[-155.97378,19.75077],[-155.9743,19.74594],[-155.97473,19.74423],[-155.97694,19.7385],[-155.97856,19.73129],[-155.97878,19.72961],[-155.9788,19.72725],[-155.97847,19.72406],[-155.9775,19.72126],[-155.97734,19.72027],[-155.97802,19.7142],[-155.97662,19.70681],[-155.97709,19.69778],[-155.97695,19.69556],[-155.97528,19.68654],[-155.97562,19.68444],[-155.97525,19.68369],[-155.97507,19.68242],[-155.97525,19.68193],[-155.97713,19.68],[-155.97971,19.674],[-155.97965,19.67045],[-155.98004,19.66961],[-155.98111,19.66827],[-155.98118,19.66602],[-155.98171,19.66429],[-155.98124,19.66064],[-155.98132,19.65997],[-155.98173,19.65924],[-155.98294,19.65836],[-155.98334,19.65779],[-155.98399,19.65378],[-155.98482,19.6523],[-155.98884,19.64942],[-155.99237,19.64793],[-155.99308,19.64735],[-155.99374,19.64627],[-156.00089,19.64986],[-156.00339,19.6516],[-156.00566,19.65423],[-156.00942,19.66177],[-156.01616,19.67206],[-156.0185,19.67597],[-156.01927,19.67754],[-156.01998,19.67961],[-156.02169,19.68705],[-156.02253,19.68932],[-156.02298,19.69028],[-156.03231,19.70504],[-156.03334,19.70721],[-156.03396,19.70952],[-156.03416,19.71189],[-156.03393,19.71425],[-156.03064,19.73326],[-156.02949,19.73819],[-156.02629,19.75619],[-156.02534,19.75997],[-156.02357,19.76526],[-156.02035,19.77188],[-156.01757,19.77633],[-156.01104,19.78555],[-156.00579,19.79241],[-156.00201,19.79668],[-155.9983,19.80044],[-155.99392,19.80449],[-155.98872,19.80878],[-155.98469,19.81111],[-155.98088,19.8126],[-155.97772,19.81341],[-155.97089,19.81443],[-155.96626,19.81611],[-155.92338,19.84073],[-155.92076,19.84266],[-155.91801,19.84519],[-155.91585,19.84766],[-155.91376,19.85085],[-155.91258,19.85303],[-155.89593,19.88996],[-155.89419,19.89333],[-155.89119,19.89758],[-155.88888,19.90015],[-155.88607,19.90277],[-155.84502,19.93357],[-155.8401,19.93802],[-155.83585,19.94272],[-155.83279,19.94679],[-155.82492,19.95851],[-155.82346,19.96111],[-155.82238,19.96361],[-155.82152,19.96632],[-155.82055,19.97171],[-155.82043,19.97652],[-155.82011,19.97905],[-155.81295,20.01279],[-155.81285,20.01422],[-155.81311,20.02034],[-155.81295,20.02274],[-155.81134,20.02291],[-155.81056,20.02279],[-155.80701,20.02092],[-155.80448,20.02046],[-155.80235,20.01974],[-155.80085,20.01979],[-155.79865,20.01888],[-155.79745,20.01913],[-155.7958,20.02057],[-155.79389,20.0205],[-155.7927,20.02098],[-155.79171,20.02111],[-155.78965,20.02087],[-155.78775,20.01933],[-155.78666,20.01911],[-155.78571,20.01924],[-155.78508,20.01958],[-155.78472,20.02016],[-155.78439,20.02146],[-155.78399,20.02187],[-155.78318,20.02221],[-155.77733,20.02227],[-155.77343,20.02162],[-155.77054,20.02269],[-155.76911,20.02257],[-155.76494,20.02308],[-155.76,20.0238],[-155.75771,20.02436],[-155.75482,20.02383],[-155.74887,20.02219],[-155.7478,20.02246],[-155.74625,20.02386],[-155.74468,20.02408],[-155.7357,20.02332],[-155.73191,20.0224],[-155.73125,20.02263],[-155.72831,20.02453],[-155.72462,20.02591],[-155.7212,20.02627],[-155.71443,20.02796],[-155.7129,20.02803],[-155.70212,20.02588],[-155.70102,20.02602],[-155.69916,20.02676],[-155.69813,20.02651],[-155.68994,20.02585],[-155.68592,20.02587],[-155.68421,20.02566],[-155.68133,20.02474],[-155.67825,20.0228],[-155.67015,20.02174],[-155.6697,20.02144],[-155.66888,20.02041]],[[-155.04826,19.60991],[-155.0492,19.60761],[-155.05151,19.60453],[-155.05285,19.60238],[-155.05626,19.59504],[-155.06003,19.59092],[-155.06065,19.59001],[-155.06103,19.58831],[-155.0604,19.58449],[-155.06048,19.58323],[-155.06098,19.58206],[-155.06408,19.57834],[-155.06894,19.575],[-155.07119,19.57395],[-155.07672,19.57195],[-155.08698,19.56552],[-155.09237,19.56317],[-155.09453,19.56194],[-155.10355,19.55447],[-155.10889,19.54908],[-155.1121,19.54744],[-155.12279,19.53897],[-155.13344,19.52874],[-155.13432,19.52735],[-155.14453,19.4979],[-155.16097,19.47499],[-155.1634,19.47204],[-155.1641,19.47083],[-155.16566,19.46685],[-155.16634,19.46557],[-155.1718,19.45723],[-155.1725,19.45636],[-155.17358,19.45545],[-155.17453,19.4549],[-155.17575,19.45449],[-155.19546,19.45035],[-155.19928,19.44906],[-155.21673,19.44025],[-155.21895,19.43896],[-155.2337,19.42612],[-155.23589,19.4245],[-155.23859,19.4234],[-155.24292,19.42249],[-155.24461,19.42263],[-155.24841,19.42374],[-155.24985,19.42448],[-155.25067,19.42532],[-155.25469,19.43158],[-155.25641,19.43304],[-155.25759,19.43352],[-155.27034,19.43688],[-155.27139,19.43693],[-155.2726,19.4367],[-155.2837,19.43029],[-155.31682,19.41457],[-155.32044,19.41243],[-155.32186,19.41198],[-155.32384,19.41102],[-155.32687,19.4085],[-155.3311,19.40447],[-155.33683,19.40051],[-155.33823,19.39855],[-155.34048,19.39662],[-155.34291,19.39342],[-155.34726,19.38904],[-155.34984,19.38705],[-155.35118,19.38574],[-155.35411,19.38168],[-155.35634,19.3795],[-155.35769,19.37764],[-155.36477,19.37148],[-155.37241,19.3642],[-155.37748,19.35895],[-155.38156,19.35439],[-155.38668,19.34819],[-155.39435,19.3378],[-155.40038,19.32844],[-155.41649,19.30221],[-155.42009,19.29567],[-155.42768,19.28022],[-155.42892,19.27832],[-155.4321,19.27453],[-155.43338,19.2726],[-155.44976,19.23588],[-155.45069,19.23472],[-155.45823,19.22763],[-155.46187,19.22182],[-155.47329,19.19425],[-155.47409,19.19279],[-155.47513,19.19147],[-155.5001,19.16631],[-155.50133,19.1646],[-155.51722,19.13883],[-155.51523,19.14205]],[[-154.9563,19.50535],[-154.95536,19.50518],[-154.95608,19.50553],[-154.9563,19.50535],[-154.95702,19.50597],[-154.95966,19.50995],[-154.96228,19.51237],[-154.96894,19.52323],[-154.97066,19.52742],[-154.97165,19.53292],[-154.97351,19.541],[-154.97482,19.54344],[-154.97505,19.54339],[-154.9748,19.54333]],[[-155.99288,19.64751],[-155.99353,19.64638],[-155.98356,19.64158],[-155.98114,19.63951],[-155.97915,19.63682],[-155.95874,19.59694],[-155.95794,19.59465],[-155.95713,19.59091],[-155.95431,19.58653],[-155.95213,19.58128],[-155.949,19.57659],[-155.94533,19.57217],[-155.94314,19.56881],[-155.94228,19.56692],[-155.9397,19.55966],[-155.9354,19.55046],[-155.93444,19.54878],[-155.93222,19.54557],[-155.92905,19.54256],[-155.92892,19.54009],[-155.92761,19.53425],[-155.92502,19.52998],[-155.92309,19.52551],[-155.92108,19.52238],[-155.92018,19.5193],[-155.92013,19.51796],[-155.92062,19.51494],[-155.92001,19.50917],[-155.92049,19.50467],[-155.9205,19.50223],[-155.9202,19.50093],[-155.91893,19.49745],[-155.91872,19.4948],[-155.91839,19.49344],[-155.91547,19.49242],[-155.91436,19.49181],[-155.91209,19.48999],[-155.90547,19.48616],[-155.89763,19.48064],[-155.89506,19.4791],[-155.89372,19.47757],[-155.89081,19.47359],[-155.88957,19.47137],[-155.88719,19.46785],[-155.88509,19.46606],[-155.88145,19.46145],[-155.87998,19.45757],[-155.87974,19.45577],[-155.87996,19.43927],[-155.88017,19.43845],[-155.88113,19.43676],[-155.88116,19.43479],[-155.88151,19.43278],[-155.8814,19.43192],[-155.88037,19.42866],[-155.88009,19.42521],[-155.8803,19.42385],[-155.88152,19.42083],[-155.8815,19.41867],[-155.88127,19.4182],[-155.8804,19.418],[-155.88012,19.41694],[-155.88055,19.41613],[-155.88055,19.41414],[-155.8811,19.41228],[-155.88055,19.4089],[-155.881,19.40808],[-155.88148,19.40587],[-155.88077,19.40291],[-155.88095,19.40123],[-155.8805,19.39996],[-155.88038,19.39879],[-155.87841,19.39325],[-155.87857,19.39135],[-155.87809,19.38633],[-155.87892,19.38385],[-155.8793,19.38156],[-155.87823,19.37984],[-155.87825,19.37818],[-155.87674,19.3766],[-155.87646,19.37546],[-155.87641,19.37344],[-155.87707,19.37175],[-155.87727,19.37042],[-155.87699,19.36459],[-155.87729,19.36349],[-155.87705,19.36195],[-155.87762,19.36029],[-155.87723,19.35839],[-155.87777,19.35575],[-155.87741,19.35458],[-155.87656,19.35334],[-155.87474,19.34846],[-155.87459,19.34672],[-155.87505,19.34552],[-155.875,19.34451],[-155.8733,19.34224],[-155.87296,19.34147],[-155.87247,19.33443],[-155.87279,19.3333],[-155.8728,19.32804],[-155.8723,19.32011],[-155.87311,19.31802],[-155.87418,19.31423],[-155.87405,19.31317],[-155.87465,19.31232],[-155.87484,19.31131],[-155.87459,19.31039],[-155.87504,19.3094],[-155.87498,19.30847],[-155.87323,19.30455],[-155.87367,19.30215],[-155.87334,19.30113],[-155.8733,19.29966],[-155.87414,19.29832],[-155.87403,19.2963],[-155.8745,19.29488],[-155.8732,19.28951],[-155.87321,19.28714],[-155.87369,19.28611],[-155.87338,19.2845],[-155.87338,19.28324],[-155.87373,19.2815],[-155.87456,19.27888],[-155.87411,19.27582],[-155.87496,19.27395],[-155.8757,19.27328],[-155.87596,19.27278],[-155.87543,19.27151],[-155.87533,19.27009],[-155.87496,19.2686],[-155.87513,19.26517],[-155.87562,19.2624],[-155.87567,19.25993],[-155.87678,19.25728],[-155.87663,19.25619],[-155.87682,19.25439],[-155.87728,19.25336],[-155.87726,19.25229],[-155.87797,19.25098],[-155.87767,19.24982],[-155.87787,19.24747],[-155.87714,19.24279],[-155.87746,19.24165],[-155.87698,19.23928],[-155.87703,19.23687],[-155.87592,19.2348],[-155.87615,19.23328],[-155.87547,19.23086],[-155.87498,19.22645],[-155.87381,19.22342],[-155.87277,19.22225],[-155.87186,19.21969],[-155.87195,19.21714],[-155.87123,19.21434],[-155.87077,19.21342],[-155.86981,19.21234],[-155.86851,19.20977],[-155.86823,19.20872],[-155.86808,19.20088],[-155.86774,19.19818],[-155.86718,19.19596],[-155.86434,19.18849],[-155.86343,19.18444],[-155.86328,19.18088],[-155.86348,19.17115],[-155.86331,19.16788],[-155.86265,19.16415],[-155.86146,19.16024],[-155.85966,19.1563],[-155.85713,19.15229],[-155.85495,19.14965],[-155.84941,19.14402],[-155.84674,19.14045],[-155.83693,19.12385],[-155.83309,19.11637],[-155.83198,19.1147],[-155.82982,19.11208],[-155.82664,19.10936],[-155.81662,19.10274],[-155.7836,19.08743],[-155.75794,19.07875],[-155.70817,19.06135],[-155.70429,19.06033],[-155.69998,19.0597],[-155.67566,19.05809],[-155.6744,19.05844],[-155.67165,19.0602],[-155.66882,19.06082],[-155.66637,19.05996],[-155.66417,19.05982],[-155.65544,19.06043],[-155.65258,19.06029],[-155.64708,19.06163],[-155.64475,19.06249],[-155.64245,19.06277],[-155.64082,19.06247],[-155.63875,19.06244],[-155.63674,19.06064],[-155.6342,19.05995],[-155.63162,19.06173],[-155.62845,19.0614],[-155.62566,19.06263],[-155.62355,19.06444],[-155.62097,19.06534],[-155.62043,19.0661],[-155.61943,19.06665],[-155.61887,19.06812],[-155.61824,19.06844],[-155.61606,19.06826],[-155.61568,19.06739],[-155.61531,19.06706],[-155.61215,19.06833],[-155.6112,19.06706],[-155.59952,19.06024],[-155.58898,19.06011],[-155.58159,19.06162],[-155.57357,19.0641],[-155.57099,19.06514],[-155.56519,19.07026],[-155.56225,19.0722],[-155.56016,19.07315],[-155.55897,19.07425],[-155.55733,19.07626],[-155.55662,19.07745],[-155.55531,19.081],[-155.55391,19.08346],[-155.55352,19.08506],[-155.55269,19.08596],[-155.55184,19.0865],[-155.54973,19.08902],[-155.5396,19.1027],[-155.51722,19.13883]],[[-155.07862,19.72212],[-155.07436,19.72193],[-155.07063,19.72257],[-155.06432,19.72257]],[[-155.08544,19.72532],[-155.08692,19.7275]],[[-155.09107,19.73913],[-155.09144,19.7369],[-155.0911,19.735]],[[-155.0656,19.69514],[-155.09046,19.69327],[-155.09053,19.69405],[-155.09387,19.69367],[-155.09789,19.69402],[-155.10024,19.69383],[-155.10361,19.69311],[-155.1121,19.69242],[-155.11364,19.69186],[-155.11494,19.6909],[-155.11866,19.68584],[-155.12028,19.68404],[-155.12392,19.68104],[-155.12641,19.67971],[-155.12841,19.67925],[-155.13103,19.67932],[-155.14089,19.68182],[-155.1433,19.68176],[-155.14624,19.68127],[-155.14995,19.68114],[-155.15126,19.68071],[-155.15224,19.68004],[-155.15466,19.67661],[-155.15667,19.67484],[-155.15918,19.67377],[-155.16182,19.67354],[-155.18579,19.67917],[-155.18759,19.67979],[-155.1893,19.68081],[-155.19093,19.68233],[-155.19449,19.68794],[-155.19557,19.68913],[-155.19711,19.69004],[-155.20285,19.69225],[-155.20418,19.69264],[-155.21389,19.69443],[-155.22024,19.69494],[-155.22315,19.69663],[-155.22648,19.69795],[-155.2327,19.69956],[-155.23489,19.69972],[-155.23723,19.69911],[-155.24128,19.69701],[-155.24371,19.69521],[-155.24547,19.69448],[-155.24719,19.69422],[-155.2556,19.69387],[-155.25663,19.6936],[-155.26,19.691],[-155.26761,19.68807],[-155.26882,19.68804],[-155.27142,19.68882],[-155.27276,19.68889],[-155.27372,19.68866],[-155.27709,19.68698],[-155.2782,19.68693],[-155.28235,19.68737],[-155.28576,19.68628],[-155.2896,19.68613],[-155.29168,19.68568],[-155.29383,19.68464],[-155.29557,19.6831],[-155.2971,19.68203],[-155.29897,19.68108],[-155.30202,19.67884],[-155.3039,19.67818],[-155.30824,19.67714],[-155.31322,19.67731],[-155.31811,19.677],[-155.32259,19.67739],[-155.3293,19.67587],[-155.33255,19.67634],[-155.33739,19.67629],[-155.3394,19.67568],[-155.3438,19.67308],[-155.35108,19.67109],[-155.35871,19.67083],[-155.36532,19.66976],[-155.36703,19.66968],[-155.36943,19.67014],[-155.37117,19.67105],[-155.37246,19.67208],[-155.37625,19.67577],[-155.38133,19.67693],[-155.38484,19.67734],[-155.38731,19.67796],[-155.38796,19.67821],[-155.38952,19.67947],[-155.39173,19.68086],[-155.39243,19.68111],[-155.39484,19.68148],[-155.39672,19.68152],[-155.39955,19.68216],[-155.4063,19.68227],[-155.41615,19.68434],[-155.41943,19.68477],[-155.43152,19.68454],[-155.43633,19.68584],[-155.44153,19.68574],[-155.44668,19.68643],[-155.45122,19.6875],[-155.45965,19.68821],[-155.47792,19.69065],[-155.47964,19.69129],[-155.48125,19.69239],[-155.48228,19.69352],[-155.48318,19.69518],[-155.4836,19.69701],[-155.48424,19.70551],[-155.48464,19.70676],[-155.48816,19.71044],[-155.49406,19.71813],[-155.50014,19.72448],[-155.50082,19.72573],[-155.50165,19.72903],[-155.50216,19.73001],[-155.51638,19.74361],[-155.51878,19.74486],[-155.52546,19.74675],[-155.52724,19.74787],[-155.52848,19.74935],[-155.52897,19.75032],[-155.52995,19.75479],[-155.53067,19.75654],[-155.53193,19.75816],[-155.53357,19.75946],[-155.535,19.76009],[-155.53655,19.76046],[-155.54464,19.76133],[-155.55222,19.76338],[-155.58069,19.76705],[-155.58251,19.76755],[-155.58508,19.769],[-155.59433,19.77679],[-155.59642,19.778],[-155.59857,19.77865],[-155.61266,19.78092],[-155.61527,19.78192],[-155.61755,19.78359],[-155.62609,19.79202],[-155.62722,19.79275],[-155.62859,19.79327],[-155.63639,19.79464],[-155.63886,19.79464],[-155.64126,19.79375],[-155.64507,19.79051],[-155.64718,19.78931],[-155.6503,19.78848],[-155.65338,19.78857],[-155.65552,19.78913],[-155.66511,19.79286],[-155.66634,19.7932],[-155.66859,19.79337],[-155.67523,19.79299],[-155.67799,19.79337],[-155.68013,19.7943],[-155.68576,19.79826],[-155.68771,19.79926],[-155.69922,19.80162],[-155.70087,19.80213],[-155.70279,19.80318],[-155.71598,19.81339],[-155.71747,19.81485],[-155.7213,19.81969],[-155.72965,19.82573],[-155.73037,19.82655],[-155.73107,19.82779],[-155.73231,19.83141],[-155.73369,19.83299],[-155.7352,19.8338],[-155.74247,19.83617],[-155.74471,19.83756],[-155.74587,19.83875],[-155.7467,19.84002],[-155.74824,19.84431]],[[-154.94084,19.49159],[-154.94063,19.49347],[-154.94078,19.49458],[-154.94137,19.49596],[-154.94226,19.49704],[-154.95208,19.504],[-154.95324,19.50458],[-154.95536,19.50518]],[[-155.98705,19.64328],[-155.99362,19.64621],[-155.99353,19.64638],[-156.00126,19.65031],[-156.00315,19.65171],[-156.00489,19.65362],[-156.00579,19.65501],[-156.00919,19.66201],[-156.01877,19.67686],[-156.01978,19.67963],[-156.02154,19.68708],[-156.0226,19.68987],[-156.0326,19.70622],[-156.03366,19.70956],[-156.0338,19.71305],[-156.02949,19.73819]],[[-155.0932,19.69371],[-155.09052,19.69388]],[[-155.06829,19.69487],[-155.06562,19.69504]],[[-155.82043,19.97652],[-155.82072,19.97051]],[[-155.07207,19.72232],[-155.06771,19.72258]],[[-155.03994,19.63262],[-155.03996,19.63271]],[[-155.02998,19.61673],[-155.0301,19.61228],[-155.02986,19.61029],[-155.029,19.60804],[-155.02738,19.60591]],[[-155.99374,19.64627],[-155.99362,19.64621]],[[-155.88014,19.41682],[-155.88045,19.41672]],[[-154.95605,19.50523],[-154.95602,19.50549]],[[-154.95612,19.50554],[-154.95664,19.50573],[-154.95747,19.50662]],[[-154.97493,19.54325],[-154.97417,19.54238]],[[-154.97492,19.54349],[-154.97563,19.54435]]]}}]}