{"type":"FeatureCollection","features":[{"type":"Feature","properties":{"c":1},"geometry":{"type":"MultiLineString","coordinates":[[[-159.41228,22.20789],[-159.41293,22.20905],[-159.4168,22.21277],[-159.41897,22.2139],[-159.42101,22.21428],[-159.42305,22.21412],[-159.42457,22.21361],[-159.42572,22.21284],[-159.43058,22.20856],[-159.43172,22.20816],[-159.43279,22.20828],[-159.43393,22.20889],[-159.43455,22.20968],[-159.43526,22.21145],[-159.43615,22.21308],[-159.43715,22.21378],[-159.43795,22.21396],[-159.43936,22.21385],[-159.44191,22.21318],[-159.44466,22.21054],[-159.44589,22.20983],[-159.4472,22.20961],[-159.45132,22.2098],[-159.45251,22.20965],[-159.45378,22.20913],[-159.45553,22.20764],[-159.4565,22.20728],[-159.46593,22.20901],[-159.46874,22.21077],[-159.4712,22.21292],[-159.47233,22.21324],[-159.47381,22.21315],[-159.47239,22.21319],[-159.47128,22.21286],[-159.46916,22.21113]],[[-159.34682,22.00067],[-159.34714,22.00065],[-159.34682,22.00067],[-159.34702,22.00156],[-159.34696,22.00289],[-159.3452,22.01098],[-159.34362,22.01704],[-159.34195,22.02071],[-159.34172,22.02176],[-159.34176,22.02297],[-159.34263,22.02674],[-159.34107,22.03649],[-159.33987,22.04028],[-159.33762,22.04351],[-159.33664,22.04443],[-159.3359,22.04684],[-159.33762,22.04351]],[[-159.77694,22.03355],[-159.77939,22.02545],[-159.7793,22.0236],[-159.77901,22.02271],[-159.77828,22.0215],[-159.73533,21.97588],[-159.73291,21.97375],[-159.73028,21.97217],[-159.72833,21.97136],[-159.71727,21.9681],[-159.71462,21.96712],[-159.7125,21.96578],[-159.71019,21.96345],[-159.70884,21.96239],[-159.70695,21.96139],[-159.70536,21.96088],[-159.7037,21.96079],[-159.70063,21.96157],[-159.69508,21.96145],[-159.67916,21.9609],[-159.67755,21.96063],[-159.67613,21.96008],[-159.67045,21.95638],[-159.65792,21.9502],[-159.65105,21.94619],[-159.65004,21.94531],[-159.64889,21.94375],[-159.6474,21.93971],[-159.64622,21.9376],[-159.64482,21.93579],[-159.64337,21.93436],[-159.62896,21.92447],[-159.62285,21.91909],[-159.61777,21.91723],[-159.61365,21.9141],[-159.61242,21.91341],[-159.61106,21.91302],[-159.60587,21.91266],[-159.60453,21.91238],[-159.6033,21.91181],[-159.59867,21.9086],[-159.59661,21.90794],[-159.59502,21.90797],[-159.58905,21.90919],[-159.58588,21.90926],[-159.58528,21.90885],[-159.58489,21.9081],[-159.58524,21.90634],[-159.58505,21.90556],[-159.58431,21.90483],[-159.58327,21.90463],[-159.58212,21.90518],[-159.57769,21.91084],[-159.57322,21.9148],[-159.57125,21.91575],[-159.56777,21.91663],[-159.56697,21.91719],[-159.56596,21.91858],[-159.56521,21.91917],[-159.56159,21.92017],[-159.55709,21.92122],[-159.55237,21.92182],[-159.54692,21.92161],[-159.54602,21.92195],[-159.54436,21.92323],[-159.54351,21.92361],[-159.5295,21.92577],[-159.52191,21.92487],[-159.51879,21.92528],[-159.51775,21.92491],[-159.51598,21.92373],[-159.514,21.92335],[-159.51238,21.92345],[-159.51172,21.9237],[-159.50949,21.92602],[-159.50864,21.9264],[-159.50783,21.92648],[-159.50675,21.92615],[-159.50468,21.92388],[-159.50329,21.92333]],[[-159.43939,21.96146],[-159.44404,21.9622],[-159.43803,21.96126],[-159.43691,21.96129],[-159.43498,21.96186],[-159.42978,21.96439],[-159.42746,21.96472],[-159.41147,21.96291],[-159.40849,21.96289],[-159.40454,21.96345],[-159.40198,21.96417],[-159.39276,21.96801],[-159.37964,21.97233],[-159.37291,21.97589],[-159.37063,21.97605],[-159.36988,21.97628],[-159.36895,21.97686],[-159.3686,21.97748],[-159.36905,21.97691],[-159.37,21.97636],[-159.37333,21.97585],[-159.37939,21.97262],[-159.39431,21.96765],[-159.40039,21.96481]],[[-159.50306,21.9233],[-159.49922,21.92301],[-159.49364,21.92407],[-159.49257,21.92473],[-159.49123,21.92608],[-159.48734,21.92834],[-159.48626,21.92933],[-159.48543,21.93048],[-159.48412,21.93372],[-159.48157,21.93793],[-159.48072,21.94002],[-159.47658,21.94579],[-159.47478,21.9469],[-159.46891,21.94858],[-159.46783,21.9491],[-159.46614,21.95038],[-159.46321,21.95342],[-159.46712,21.94957]],[[-159.30742,22.09317],[-159.30722,22.09423],[-159.30276,22.10683],[-159.30052,22.11769],[-159.30037,22.1194],[-159.3005,22.12105],[-159.30201,22.12781],[-159.30364,22.13492],[-159.30421,22.13636],[-159.30494,22.13749],[-159.30596,22.13861],[-159.30726,22.13961],[-159.31333,22.14243],[-159.31452,22.14366],[-159.31569,22.1465],[-159.31487,22.15245],[-159.31623,22.15792],[-159.31777,22.16082],[-159.32473,22.16931],[-159.32555,22.1706],[-159.32604,22.17263],[-159.32568,22.17542],[-159.32626,22.17686],[-159.32723,22.17763],[-159.33217,22.17975],[-159.33501,22.18074],[-159.33639,22.18096],[-159.33898,22.18084],[-159.34707,22.17877],[-159.34892,22.17854],[-159.3522,22.17884],[-159.35409,22.17951],[-159.35566,22.18041],[-159.35964,22.18369],[-159.36075,22.18543],[-159.36114,22.18719],[-159.36015,22.19648],[-159.36022,22.19749],[-159.36076,22.1991],[-159.36158,22.20028],[-159.36297,22.20138],[-159.36403,22.20186],[-159.36904,22.20345],[-159.37144,22.20367],[-159.37751,22.2025],[-159.37953,22.20233],[-159.38192,22.20258],[-159.38533,22.20343],[-159.39167,22.20343],[-159.40018,22.20158],[-159.40206,22.20155],[-159.40609,22.20223],[-159.40828,22.20281],[-159.40956,22.20336],[-159.41045,22.20411],[-159.41119,22.20512],[-159.41205,22.20769]],[[-159.30758,22.09294],[-159.3068,22.09043],[-159.30703,22.08927],[-159.3084,22.08776],[-159.30975,22.0852],[-159.31246,22.08255],[-159.31527,22.07859],[-159.3181,22.07635],[-159.31844,22.07582],[-159.31919,22.07389],[-159.31951,22.07208],[-159.31935,22.06538],[-159.32005,22.06249],[-159.32112,22.06115],[-159.32471,22.05779],[-159.33201,22.05356],[-159.33266,22.053],[-159.33373,22.05172],[-159.3359,22.04684]],[[-159.69592,21.96145],[-159.69348,21.96137]],[[-159.3686,21.97748],[-159.36623,21.98651],[-159.36596,21.98818],[-159.3663,21.99028],[-159.36616,21.99099],[-159.36579,21.99157],[-159.365,21.99201],[-159.36302,21.99189],[-159.36106,21.99227],[-159.35749,21.99337],[-159.35482,21.99446],[-159.35332,21.99546],[-159.35047,21.99798],[-159.34894,21.99996],[-159.34833,22.00035],[-159.34714,22.00065]],[[-159.34687,22.00112],[-159.34701,22.00189]],[[-159.46321,21.95342],[-159.45694,21.95979],[-159.45533,21.96105],[-159.45411,21.96145],[-159.44723,21.96233],[-159.44561,21.9624],[-159.44404,21.9622]],[[-159.30737,22.09307],[-159.30751,22.09321],[-159.30766,22.09309],[-159.30755,22.09293],[-159.30737,22.09307]],[[-159.30744,22.09352],[-159.30755,22.09321]],[[-159.30743,22.0925],[-159.30745,22.09295]],[[-159.41211,22.20794],[-159.41263,22.20864]],[[-159.41219,22.20766],[-159.41184,22.20694]],[[-159.41212,22.20766],[-159.4123,22.20777],[-159.41219,22.20794],[-159.412,22.20782],[-159.41212,22.20766]]]}}]}