{"type":"FeatureCollection","features":[{"type":"Feature","properties":{"c":1},"geometry":{"type":"MultiLineString","coordinates":[[[-156.49594,20.88888],[-156.49514,20.88874],[-156.47462,20.8888],[-156.46874,20.89067],[-156.46377,20.89261],[-156.45425,20.88627],[-156.44923,20.88327],[-156.44907,20.88339],[-156.45348,20.886],[-156.46375,20.89279],[-156.46879,20.89082],[-156.47464,20.88894],[-156.49581,20.88892],[-156.50003,20.8882],[-156.50485,20.88695],[-156.50464,20.88488],[-156.50508,20.88227],[-156.50326,20.87128],[-156.50252,20.86512],[-156.50376,20.85343],[-156.50542,20.84689],[-156.50621,20.83718],[-156.50681,20.81668],[-156.50746,20.81158],[-156.50623,20.81137],[-156.50563,20.81097],[-156.49757,20.80158],[-156.49605,20.8001],[-156.49482,20.79951],[-156.48718,20.79731],[-156.48641,20.79685],[-156.48423,20.79491],[-156.47885,20.79221],[-156.47229,20.78927],[-156.46976,20.78745],[-156.46581,20.78516],[-156.46487,20.78492],[-156.46386,20.78497],[-156.46249,20.7853],[-156.46181,20.78584],[-156.462,20.78578],[-156.4614,20.78505],[-156.45818,20.78234],[-156.4598,20.78406],[-156.46175,20.78575],[-156.46274,20.78726],[-156.46804,20.80909],[-156.46818,20.81152],[-156.46545,20.83473],[-156.45708,20.86647],[-156.45692,20.86882],[-156.45737,20.87086],[-156.46036,20.87628],[-156.45749,20.87077],[-156.45707,20.86892],[-156.45714,20.86689],[-156.46558,20.83476],[-156.46833,20.81152],[-156.46819,20.80907],[-156.46327,20.78856],[-156.4629,20.78723],[-156.462,20.78578],[-156.46267,20.78536],[-156.46407,20.78507],[-156.46588,20.78523]],[[-156.26473,20.91703],[-156.26524,20.91778],[-156.2674,20.91797],[-156.2691,20.91929],[-156.27141,20.92047],[-156.27569,20.92169],[-156.27806,20.92405],[-156.27927,20.92491],[-156.28079,20.92545],[-156.28258,20.92571],[-156.28371,20.92554],[-156.28465,20.92504],[-156.28531,20.92433],[-156.28629,20.92241],[-156.28726,20.92186],[-156.28842,20.92185],[-156.29004,20.92255],[-156.29095,20.92273],[-156.29209,20.92268],[-156.29314,20.92234],[-156.29425,20.92154],[-156.29599,20.91894],[-156.29672,20.91853],[-156.29766,20.9185],[-156.29851,20.91892],[-156.30238,20.92271],[-156.30783,20.92909],[-156.30891,20.92989],[-156.31014,20.93043],[-156.31179,20.93086],[-156.31349,20.93093],[-156.31645,20.93059],[-156.32037,20.92983],[-156.32307,20.92999],[-156.32493,20.93052],[-156.33225,20.93328],[-156.33375,20.93431],[-156.33683,20.93753],[-156.33742,20.93793],[-156.33819,20.93787],[-156.33867,20.93733],[-156.33865,20.93669],[-156.33783,20.93482],[-156.33799,20.9342],[-156.33864,20.93386],[-156.33938,20.93415],[-156.34132,20.93698],[-156.34214,20.93764],[-156.34322,20.93782],[-156.34608,20.93742],[-156.34904,20.93661],[-156.35788,20.93279],[-156.36015,20.93279],[-156.36106,20.93232],[-156.36182,20.93144],[-156.36476,20.93039],[-156.3663,20.92906],[-156.3665,20.92772],[-156.37086,20.92337],[-156.3757,20.92038],[-156.38171,20.91581],[-156.39629,20.91008],[-156.41313,20.90472],[-156.41453,20.90404],[-156.41539,20.90332],[-156.41627,20.90214],[-156.41762,20.89848],[-156.41905,20.89587],[-156.42639,20.88601],[-156.4247,20.88565],[-156.41479,20.88213],[-156.40836,20.88093],[-156.40612,20.88012],[-156.40417,20.87896],[-156.39937,20.87478],[-156.39678,20.87316],[-156.38027,20.86705],[-156.37621,20.86534],[-156.37166,20.8627],[-156.36653,20.85882],[-156.35646,20.85218],[-156.35323,20.85063],[-156.34683,20.84851],[-156.35321,20.85071],[-156.35588,20.85202],[-156.36545,20.85831],[-156.37152,20.86288],[-156.3761,20.86553],[-156.38017,20.86722],[-156.39453,20.87241],[-156.39666,20.87335],[-156.39922,20.87495],[-156.40405,20.8791],[-156.40603,20.88028],[-156.4076,20.8809],[-156.41428,20.88215],[-156.4244,20.88572],[-156.4261,20.886],[-156.42639,20.88601],[-156.43064,20.88044],[-156.43222,20.87945],[-156.43373,20.87906],[-156.43708,20.87932],[-156.44075,20.88006],[-156.44324,20.8808],[-156.44703,20.88235],[-156.44907,20.88339]],[[-156.33024,20.82932],[-156.33013,20.83078],[-156.32931,20.83502],[-156.32968,20.83693],[-156.33077,20.83865],[-156.33409,20.84117],[-156.34072,20.84575],[-156.34386,20.84746],[-156.34683,20.84851]],[[-156.45818,20.78234],[-156.45693,20.78135],[-156.45549,20.77982],[-156.45392,20.77676],[-156.45336,20.77513],[-156.45043,20.76328],[-156.44986,20.76211]],[[-156.66574,20.98456],[-156.66752,20.98443],[-156.66846,20.98417],[-156.66933,20.9838],[-156.67061,20.98288],[-156.67194,20.98134],[-156.67397,20.9778],[-156.6759,20.97535],[-156.67656,20.97373],[-156.67796,20.9689],[-156.681,20.96338],[-156.68316,20.9552],[-156.68376,20.95355],[-156.68743,20.94638],[-156.68949,20.94185],[-156.68994,20.94],[-156.69005,20.93716],[-156.69002,20.91744],[-156.68967,20.91435],[-156.69021,20.91717],[-156.69004,20.93079]],[[-156.50678,20.81965],[-156.50761,20.81182],[-156.50958,20.80001],[-156.51092,20.79662],[-156.51436,20.79086],[-156.51766,20.7837],[-156.51867,20.78254],[-156.52142,20.78067],[-156.52253,20.77923],[-156.5232,20.77877],[-156.52542,20.77863],[-156.52677,20.77763],[-156.52895,20.77713],[-156.53057,20.77608],[-156.53287,20.77634],[-156.5349,20.77599],[-156.53649,20.77549],[-156.53728,20.77559],[-156.53937,20.77703],[-156.54135,20.7793],[-156.54277,20.78004],[-156.54357,20.78096],[-156.54412,20.78117],[-156.54562,20.78122],[-156.54673,20.78242],[-156.54842,20.78302],[-156.54925,20.7845],[-156.55435,20.78615],[-156.55555,20.7877],[-156.55774,20.78884],[-156.55992,20.78941],[-156.5609,20.79029],[-156.56263,20.79071],[-156.56596,20.79264],[-156.56789,20.79315],[-156.58058,20.79477],[-156.58236,20.79516],[-156.58455,20.79595],[-156.58976,20.79852],[-156.59341,20.80113],[-156.59939,20.80615],[-156.60702,20.80982],[-156.60817,20.81014],[-156.61055,20.8104],[-156.61892,20.81042],[-156.62106,20.81081],[-156.62233,20.81125],[-156.62307,20.81171],[-156.62548,20.81425],[-156.62848,20.81851],[-156.63058,20.8233],[-156.63251,20.82593],[-156.63818,20.83097],[-156.63998,20.83401],[-156.64077,20.83491],[-156.6418,20.83562],[-156.64488,20.83715],[-156.64689,20.83898],[-156.64791,20.84062],[-156.64983,20.84602],[-156.65096,20.84818],[-156.65244,20.85006],[-156.656,20.85364],[-156.66208,20.8616],[-156.66357,20.8651],[-156.66429,20.86822],[-156.6644,20.87046],[-156.66409,20.87765],[-156.66435,20.87968],[-156.66478,20.88098],[-156.66556,20.88231],[-156.66818,20.88503],[-156.66596,20.88257],[-156.66457,20.8804]],[[-156.43017,20.68822],[-156.4301,20.68851],[-156.43062,20.69032],[-156.43027,20.68834]],[[-156.68228,20.88487],[-156.68173,20.88503],[-156.6802,20.88492],[-156.6786,20.88542],[-156.68016,20.88483],[-156.68228,20.88487],[-156.68487,20.89358],[-156.68469,20.90259],[-156.68769,20.90824],[-156.68967,20.91435]],[[-156.50943,20.80057],[-156.5085,20.80492],[-156.50746,20.81158]],[[-156.50681,20.81668],[-156.50491,20.81721],[-156.50334,20.81812],[-156.4999,20.82159],[-156.49568,20.82532],[-156.4948,20.82643],[-156.49403,20.82762],[-156.49296,20.83018],[-156.49156,20.83588],[-156.49061,20.83836],[-156.48231,20.85314],[-156.47904,20.85821],[-156.47669,20.86095],[-156.46049,20.87627],[-156.47588,20.86198],[-156.47919,20.85831],[-156.48207,20.85391],[-156.49073,20.83842],[-156.49171,20.8359],[-156.49357,20.82894],[-156.49493,20.82651],[-156.49684,20.82441],[-156.49997,20.82171],[-156.50343,20.81822],[-156.50494,20.81733],[-156.50701,20.81664],[-156.50681,20.81668]],[[-156.42489,20.88787],[-156.43021,20.88066],[-156.43141,20.87973],[-156.43259,20.87918],[-156.43488,20.8789],[-156.43816,20.87933],[-156.44104,20.87996],[-156.44515,20.88134],[-156.44923,20.88327],[-156.45377,20.88017],[-156.45889,20.87788],[-156.46049,20.87627]],[[-156.46041,20.87636],[-156.45837,20.87794],[-156.45365,20.88004],[-156.45231,20.88083],[-156.44893,20.88331]],[[-156.67323,20.8881],[-156.67551,20.88882],[-156.67681,20.88686],[-156.67608,20.88755],[-156.67554,20.88859],[-156.67514,20.88869],[-156.67058,20.88717],[-156.66818,20.88503]],[[-156.44999,20.76174],[-156.44722,20.75416],[-156.44579,20.74676],[-156.44544,20.7437],[-156.44587,20.73621],[-156.44566,20.7342],[-156.44477,20.73194],[-156.44168,20.7272],[-156.43749,20.71806],[-156.43594,20.71052],[-156.43062,20.69032]],[[-156.67681,20.88686],[-156.6786,20.88542]],[[-156.45009,20.76182],[-156.44979,20.76175],[-156.44971,20.76199],[-156.45,20.7621],[-156.45009,20.76182]],[[-156.44932,20.75993],[-156.44974,20.7618]],[[-156.45043,20.76328],[-156.4501,20.76201]]]}}]}