{"type":"FeatureCollection","features":[{"type":"Feature","properties":{"c":1},"geometry":{"type":"MultiLineString","coordinates":[[[-157.9345,21.36985],[-157.93506,21.3695],[-157.93285,21.37334],[-157.93263,21.37417],[-157.9327,21.37509],[-157.93307,21.37599],[-157.93355,21.37655],[-157.93708,21.37932],[-157.96531,21.39221],[-157.97471,21.3955],[-157.9785,21.39648],[-157.98421,21.39615],[-157.98769,21.3951],[-157.98915,21.39419],[-157.9988,21.3861],[-158.00041,21.38512],[-158.00216,21.38452],[-158.0103,21.38308],[-158.01488,21.38197],[-158.01747,21.38094],[-158.02867,21.37523],[-158.02971,21.37482],[-158.03203,21.37444],[-158.03033,21.37455],[-158.02817,21.37521],[-158.01788,21.38055],[-158.01513,21.38172],[-158.01297,21.38234],[-158.00214,21.38438],[-158.0003,21.38501],[-157.9985,21.38616],[-157.98866,21.39443],[-157.98743,21.39506],[-157.98536,21.39569],[-157.98711,21.39497],[-157.98764,21.39384],[-157.9881,21.39347],[-157.9889,21.39344],[-157.98967,21.394],[-157.99347,21.40106],[-157.99922,21.40936],[-158.00749,21.42194],[-158.00784,21.42283],[-158.00795,21.42431],[-158.00828,21.42513],[-158.0091,21.42591],[-158.01212,21.42738],[-158.01327,21.42921],[-158.01347,21.43003],[-158.01321,21.4321],[-158.01391,21.43566],[-158.01293,21.44186],[-158.01558,21.45048],[-158.01694,21.45752],[-158.01807,21.45869],[-158.02246,21.46075],[-158.02329,21.46155],[-158.02378,21.46257],[-158.02445,21.46826],[-158.02872,21.49108],[-158.02909,21.49119],[-158.03795,21.48873],[-158.04194,21.48884],[-158.04362,21.48953],[-158.05008,21.49452],[-158.05048,21.49503],[-158.05216,21.50159],[-158.052,21.50279],[-158.0512,21.50395],[-158.04323,21.5111],[-158.04103,21.51399],[-158.04061,21.51431],[-158.04038,21.51535],[-158.03826,21.5203],[-158.03798,21.5216],[-158.03798,21.52294],[-158.03833,21.52437],[-158.04536,21.54621],[-158.0464,21.54845],[-158.04755,21.5497],[-158.04927,21.55082],[-158.06433,21.5567],[-158.06604,21.55802],[-158.06891,21.56127],[-158.07084,21.56261],[-158.10087,21.5738],[-158.10163,21.57421],[-158.1022,21.57478],[-158.1029,21.57616],[-158.10291,21.57758],[-158.10229,21.58308],[-158.09946,21.5959],[-158.09981,21.60268],[-158.09946,21.60379],[-158.09867,21.60511],[-158.09714,21.60696],[-158.08381,21.6199],[-158.07452,21.6266],[-158.06698,21.63735],[-158.06618,21.6378],[-158.06498,21.63792],[-158.06265,21.63896],[-158.06119,21.639],[-158.06032,21.63965],[-158.06009,21.64016],[-158.06025,21.6407],[-158.06239,21.64201],[-158.06353,21.64333],[-158.06375,21.64448],[-158.06269,21.64697],[-158.06169,21.65066],[-158.05749,21.6581],[-158.05659,21.65911],[-158.04037,21.67378],[-158.03515,21.67904],[-158.02998,21.68286],[-158.02552,21.68538],[-158.02249,21.68802],[-158.01897,21.69326],[-158.01567,21.6952],[-158.01466,21.69551],[-158.01339,21.6955],[-158.00982,21.69496],[-158.00613,21.69586],[-158.0026,21.69647],[-157.99773,21.6963],[-157.99232,21.69759],[-157.98871,21.69817],[-157.98448,21.69714],[-157.9799,21.69391],[-157.96812,21.68975],[-157.95357,21.67817],[-157.95261,21.67777],[-157.94824,21.67694],[-157.94025,21.67188],[-157.93934,21.67076],[-157.93808,21.66757],[-157.93638,21.66458],[-157.93094,21.65693],[-157.93028,21.65472],[-157.92875,21.65242],[-157.92793,21.65176],[-157.92445,21.65021],[-157.92245,21.6477],[-157.9205,21.64672],[-157.91996,21.64622],[-157.9197,21.64552],[-157.91989,21.64328],[-157.91899,21.64092],[-157.91889,21.6399],[-157.91979,21.63741],[-157.91977,21.63503],[-157.92009,21.63443],[-157.92107,21.63345],[-157.92143,21.6315],[-157.92231,21.62976],[-157.92169,21.62577],[-157.92079,21.62482],[-157.91645,21.62123],[-157.91511,21.61966],[-157.91351,21.61654],[-157.91294,21.61437],[-157.90834,21.60776],[-157.90723,21.60711],[-157.90465,21.60674],[-157.90181,21.6054],[-157.89974,21.60387],[-157.89871,21.60287],[-157.89762,21.60065],[-157.89692,21.59785],[-157.89604,21.59649],[-157.89558,21.59488],[-157.89384,21.59286],[-157.89244,21.59217],[-157.89084,21.59053],[-157.88921,21.58859],[-157.88752,21.58583],[-157.88678,21.58186],[-157.88591,21.58013],[-157.8834,21.57754],[-157.87786,21.57458],[-157.87633,21.57269],[-157.87604,21.57188],[-157.87589,21.56855],[-157.87536,21.56705],[-157.87527,21.56533],[-157.87492,21.5637],[-157.87502,21.563],[-157.87559,21.56197],[-157.87572,21.56045],[-157.87681,21.55817],[-157.87675,21.55765],[-157.8764,21.55703],[-157.87572,21.55627],[-157.87473,21.55576],[-157.87371,21.55538],[-157.87158,21.55498],[-157.87048,21.55427],[-157.87001,21.55423],[-157.86896,21.55504],[-157.86766,21.55679],[-157.86519,21.55914],[-157.86471,21.56003],[-157.86412,21.56022],[-157.86186,21.55942],[-157.86001,21.55849],[-157.8545,21.55688],[-157.85092,21.55481],[-157.8503,21.55421],[-157.84682,21.54939],[-157.84646,21.54809],[-157.8467,21.54627],[-157.84611,21.54503],[-157.84452,21.5434],[-157.84263,21.54239],[-157.84211,21.54182],[-157.84012,21.53608],[-157.83833,21.53433],[-157.83768,21.53256],[-157.83574,21.52919],[-157.83482,21.52586],[-157.83579,21.51878],[-157.83612,21.51797],[-157.83672,21.5175],[-157.84099,21.51587],[-157.84396,21.51525],[-157.84632,21.5139],[-157.84984,21.51242],[-157.8542,21.50957],[-157.85476,21.50902],[-157.8557,21.5075],[-157.85599,21.5054],[-157.85572,21.50395],[-157.85393,21.50082],[-157.85085,21.49369],[-157.85051,21.48978],[-157.84932,21.48662],[-157.84814,21.48499],[-157.84536,21.48292],[-157.84506,21.48225],[-157.84449,21.47925],[-157.84311,21.47839],[-157.84261,21.47771],[-157.84249,21.47659],[-157.84263,21.47554],[-157.84286,21.47518],[-157.84395,21.47453],[-157.8443,21.47412],[-157.84481,21.47117],[-157.8438,21.46788],[-157.8432,21.46287],[-157.84164,21.4602],[-157.8381,21.45729]],[[-157.88246,21.33676],[-157.88381,21.33789],[-157.88601,21.34121],[-157.8867,21.34191],[-157.88786,21.34255],[-157.89037,21.34316],[-157.89143,21.3436],[-157.89245,21.34432],[-157.89322,21.34528],[-157.89578,21.34908],[-157.89626,21.35074],[-157.89633,21.3536],[-157.8968,21.3545],[-157.89847,21.3562],[-157.8991,21.35724],[-157.89938,21.35819],[-157.89961,21.3607],[-157.89993,21.36159],[-157.90528,21.36778],[-157.90685,21.36848],[-157.90949,21.36863],[-157.91067,21.3689],[-157.91898,21.37213],[-157.92034,21.37229],[-157.92277,21.37224],[-157.92398,21.37246],[-157.92492,21.37285],[-157.92877,21.37534],[-157.9299,21.37573],[-157.9326,21.37623],[-157.93424,21.37713]],[[-157.74821,21.42124],[-157.74912,21.41997],[-157.75215,21.41339],[-157.75639,21.40806],[-157.75776,21.40713],[-157.75954,21.40641],[-157.76076,21.40606],[-157.76184,21.40601],[-157.76584,21.4066],[-157.76684,21.40712],[-157.7698,21.40929],[-157.77239,21.41056],[-157.77402,21.41111],[-157.77582,21.41092],[-157.77415,21.411],[-157.77313,21.41076],[-157.77017,21.40937],[-157.76664,21.40687],[-157.76562,21.40641],[-157.76167,21.40587],[-157.7596,21.40624],[-157.75749,21.40712],[-157.7563,21.40797],[-157.75204,21.41333],[-157.74899,21.41992],[-157.74817,21.42108]],[[-157.77582,21.41092],[-157.77745,21.41074],[-157.77845,21.41033],[-157.78052,21.40857],[-157.78185,21.4068],[-157.78267,21.40616],[-157.7887,21.40578],[-157.79251,21.40579],[-157.79419,21.4052],[-157.79841,21.40295],[-157.79969,21.40297],[-157.79984,21.40244],[-157.79972,21.4013],[-157.79795,21.39684],[-157.79704,21.39312],[-157.79461,21.38904],[-157.79321,21.3871],[-157.78093,21.37499],[-157.78157,21.37429],[-157.78181,21.37372],[-157.78226,21.36937],[-157.78179,21.36819],[-157.77997,21.3661],[-157.77987,21.36554],[-157.78006,21.36504],[-157.78054,21.36468],[-157.78113,21.36458],[-157.78189,21.36502],[-157.78339,21.36745],[-157.78394,21.36885],[-157.78482,21.36967],[-157.78587,21.3699],[-157.78689,21.36968],[-157.78843,21.36869],[-157.7898,21.36852],[-157.79164,21.36771],[-157.79705,21.36425],[-157.80418,21.36092],[-157.80559,21.35954],[-157.80727,21.35654],[-157.80803,21.35581],[-157.80966,21.3548],[-157.81234,21.35387],[-157.81656,21.35383],[-157.81833,21.35338],[-157.82408,21.35067],[-157.82922,21.34701],[-157.83041,21.34576],[-157.83381,21.34111],[-157.83711,21.33805],[-157.83981,21.33615],[-157.84522,21.32939],[-157.84571,21.32798],[-157.84541,21.32517],[-157.84677,21.32258],[-157.84997,21.32009],[-157.85321,21.31601],[-157.85639,21.31302],[-157.8581,21.31171],[-157.85877,21.31062],[-157.86429,21.3167],[-157.8642,21.31281],[-157.86209,21.30916],[-157.85915,21.30572],[-157.85579,21.30383],[-157.85553,21.30343],[-157.85475,21.30361],[-157.85595,21.30392]],[[-157.86575,21.32487],[-157.8621,21.31997],[-157.86001,21.32161],[-157.8573,21.31826]],[[-157.85817,21.30989],[-157.85717,21.3107],[-157.85764,21.31185],[-157.85649,21.31269],[-157.85437,21.31015],[-157.85533,21.30733],[-157.85579,21.30679],[-157.85877,21.31062]],[[-157.76596,21.37721],[-157.77492,21.37938],[-157.77585,21.37938],[-157.7774,21.37871],[-157.78086,21.37506],[-157.78078,21.37494],[-157.7773,21.37862],[-157.77624,21.37919],[-157.77493,21.37928],[-157.76643,21.37718],[-157.76334,21.37699],[-157.76152,21.37737],[-157.75916,21.3783],[-157.75729,21.37956],[-157.75607,21.38085],[-157.74875,21.37675],[-157.74618,21.37491],[-157.74339,21.37236],[-157.74151,21.37008],[-157.73488,21.36028],[-157.72971,21.35474],[-157.72946,21.35408],[-157.72955,21.35327],[-157.72962,21.35417],[-157.72998,21.3549],[-157.73495,21.36023],[-157.74232,21.37091],[-157.74519,21.37388],[-157.74873,21.37656],[-157.75621,21.38086],[-157.75804,21.37913],[-157.76036,21.37786],[-157.76335,21.37712],[-157.76596,21.37721]],[[-158.05167,21.50345],[-158.05265,21.50265],[-158.05188,21.50031],[-158.05064,21.49509],[-158.05027,21.49452],[-158.0494,21.49383],[-158.04374,21.48946],[-158.0423,21.4888],[-158.03805,21.48859],[-158.03124,21.49032],[-158.02946,21.49013],[-158.02769,21.48928],[-158.02682,21.48853],[-158.02604,21.48733],[-158.02449,21.48001],[-158.02379,21.47859],[-158.02304,21.47773],[-158.02133,21.47658],[-158.01168,21.473],[-158.01026,21.47222],[-158.00917,21.47122],[-158.00417,21.46534],[-158.00186,21.46376],[-157.99608,21.46124],[-157.99102,21.45659],[-157.99045,21.45577],[-157.99001,21.45455],[-157.98997,21.45351],[-157.99124,21.44665],[-157.99434,21.44077],[-157.99514,21.43668],[-157.99663,21.4337],[-157.99701,21.43176],[-157.99592,21.42603],[-157.99475,21.42168],[-157.99403,21.41795],[-157.99318,21.41633],[-157.99025,21.41252],[-157.98979,21.41145],[-157.98946,21.40777],[-157.98839,21.40375],[-157.98829,21.3997],[-157.98794,21.39861],[-157.98727,21.39762],[-157.9845,21.39562],[-157.98355,21.39518],[-157.97116,21.39037],[-157.96962,21.38996],[-157.96749,21.38976],[-157.9653,21.38998],[-157.96371,21.39042],[-157.95734,21.39296],[-157.95605,21.3932],[-157.95453,21.3932],[-157.95251,21.39273],[-157.9363,21.3868],[-157.93403,21.38566],[-157.93229,21.38399],[-157.92606,21.3756],[-157.92558,21.37461],[-157.92537,21.3734],[-157.92565,21.37184],[-157.93046,21.36143],[-157.93147,21.35827],[-157.93363,21.34735],[-157.93361,21.34613],[-157.9333,21.34464],[-157.93211,21.34232],[-157.93102,21.34107],[-157.9298,21.34012],[-157.92801,21.3392],[-157.92684,21.33886],[-157.89845,21.3346]],[[-157.9845,21.39562],[-157.987,21.39708],[-157.98879,21.39763],[-157.99329,21.39774],[-158.00061,21.39917],[-158.00238,21.39912],[-158.00436,21.39867],[-158.00696,21.39766],[-158.00887,21.3966],[-158.01485,21.39187],[-158.02254,21.38903],[-158.03967,21.37935],[-158.04874,21.37563],[-158.05042,21.37473],[-158.05158,21.37393],[-158.05835,21.36792],[-158.06155,21.36504],[-158.06218,21.36425],[-158.06304,21.36246],[-158.06443,21.3563],[-158.06555,21.35391],[-158.06665,21.35239],[-158.07905,21.34076],[-158.08523,21.33374],[-158.08649,21.33284],[-158.08781,21.33231],[-158.09001,21.33212],[-158.09211,21.33266],[-158.09336,21.33348],[-158.09524,21.33563],[-158.09623,21.33646],[-158.10471,21.34125],[-158.10969,21.34207],[-158.11235,21.34355],[-158.11358,21.34393],[-158.11868,21.34409],[-158.12053,21.34452],[-158.12768,21.34823],[-158.12845,21.3488],[-158.12933,21.35003],[-158.12979,21.35182],[-158.12972,21.35499],[-158.13,21.3565],[-158.1319,21.36144],[-158.13476,21.36647],[-158.13516,21.36753],[-158.13206,21.36207],[-158.13125,21.3602],[-158.12965,21.35573],[-158.12968,21.35215],[-158.12943,21.35071],[-158.12893,21.34961],[-158.12793,21.34856],[-158.11988,21.34443],[-158.11311,21.34399],[-158.10992,21.34229],[-158.10552,21.3416],[-158.10427,21.34121],[-158.09595,21.33642],[-158.09338,21.33369],[-158.09224,21.33288],[-158.09135,21.33249],[-158.09017,21.33226],[-158.08765,21.3325],[-158.08628,21.33313],[-158.08518,21.33401],[-158.08005,21.34006],[-158.06739,21.35186],[-158.06589,21.35377],[-158.06488,21.35569],[-158.06426,21.35767],[-158.06328,21.36253],[-158.0623,21.36444],[-158.06116,21.36564],[-158.05225,21.3736],[-158.04986,21.3753],[-158.04025,21.37927],[-158.0218,21.38969],[-158.01482,21.39213],[-158.00943,21.39657],[-158.00706,21.39789],[-158.00448,21.39889],[-158.00194,21.3994],[-158.00062,21.3994],[-157.9934,21.39802],[-157.98838,21.39801],[-157.98644,21.3974],[-157.98355,21.39555],[-157.98213,21.39489],[-157.98396,21.39592],[-157.98577,21.39728],[-157.98676,21.39829],[-157.98728,21.39922],[-157.98799,21.40332],[-157.98928,21.40764],[-157.98963,21.41152],[-157.99033,21.41305],[-157.99248,21.41569],[-157.99335,21.4174],[-157.994,21.42137],[-157.99556,21.42527],[-157.99673,21.43087],[-157.99668,21.43187],[-157.99615,21.43337],[-157.99482,21.43532],[-157.99412,21.43689],[-157.99381,21.43824],[-157.99352,21.44129],[-157.99319,21.4424],[-157.99127,21.44602],[-157.99095,21.44699],[-157.98968,21.45373],[-157.98982,21.45475],[-157.99026,21.45585],[-157.99104,21.45686],[-157.99608,21.46148],[-157.99766,21.4623],[-158.00195,21.464],[-158.00365,21.46518],[-158.00908,21.47145],[-158.01002,21.47229],[-158.01182,21.47328],[-158.02118,21.47673],[-158.02277,21.47777],[-158.02374,21.47887],[-158.02429,21.48003],[-158.02564,21.48688],[-158.02658,21.48851],[-158.02776,21.48955],[-158.02942,21.49028],[-158.0312,21.49046],[-158.03282,21.49015]],[[-157.92172,21.37017],[-157.91974,21.36973],[-157.91796,21.36957],[-157.91323,21.37041],[-157.91161,21.37108],[-157.91019,21.37242],[-157.90831,21.37628],[-157.90738,21.37765],[-157.90595,21.37897],[-157.90274,21.38093],[-157.90128,21.38224],[-157.89734,21.38627],[-157.89416,21.39051],[-157.89235,21.39236],[-157.89068,21.39345],[-157.88598,21.39579],[-157.88165,21.39699],[-157.87876,21.39826],[-157.8773,21.3993],[-157.87378,21.40244],[-157.87057,21.40445],[-157.86802,21.40545],[-157.86441,21.40624],[-157.86126,21.40645],[-157.85792,21.40629],[-157.85329,21.40541],[-157.84883,21.40398],[-157.8464,21.40339],[-157.84411,21.40321],[-157.83415,21.40332],[-157.83215,21.40293],[-157.83021,21.40217],[-157.82866,21.40197],[-157.82662,21.40245],[-157.82411,21.4041],[-157.8227,21.40478],[-157.8209,21.40508],[-157.81896,21.40467],[-157.81685,21.40334],[-157.81467,21.40121],[-157.81384,21.4002],[-157.81325,21.39898],[-157.81298,21.3976],[-157.81345,21.38972],[-157.81319,21.3881],[-157.81243,21.38639],[-157.81124,21.38476],[-157.80683,21.38046],[-157.80487,21.37922],[-157.8034,21.37876],[-157.80098,21.37858],[-157.7994,21.37888],[-157.79805,21.37939],[-157.79685,21.3801],[-157.79196,21.38381],[-157.79018,21.3847],[-157.78848,21.38495],[-157.78447,21.38484],[-157.78175,21.38547],[-157.78028,21.3862],[-157.77638,21.38874],[-157.77461,21.39046],[-157.77347,21.3925],[-157.77243,21.39673],[-157.77177,21.39824],[-157.76488,21.40787],[-157.7636,21.41009],[-157.76274,21.41333],[-157.76172,21.42156],[-157.76015,21.42691],[-157.76002,21.42878],[-157.7603,21.43198],[-157.76008,21.43256],[-157.75954,21.43319],[-157.75759,21.43429],[-157.7571,21.43528]],[[-157.81723,21.28968],[-157.819,21.29011],[-157.82185,21.29193],[-157.83695,21.2973],[-157.83684,21.29294],[-157.83569,21.29057],[-157.82725,21.28763],[-157.82592,21.28745],[-157.82472,21.28755],[-157.82715,21.28772],[-157.83202,21.28936]],[[-157.94418,21.34072],[-157.9422,21.34249],[-157.94128,21.34394],[-157.94026,21.34428],[-157.93819,21.34366],[-157.93432,21.34172],[-157.93227,21.34113],[-157.93098,21.34036],[-157.93244,21.34169],[-157.93336,21.34341],[-157.93396,21.34664],[-157.93484,21.34908],[-157.93789,21.36287],[-157.93796,21.36357],[-157.93774,21.36434]],[[-157.94366,21.34701],[-157.94067,21.34428],[-157.93794,21.34355]],[[-157.89908,21.33504],[-157.92654,21.33918],[-157.92877,21.34001],[-157.92981,21.34079],[-157.93102,21.34232],[-157.93164,21.34277],[-157.93265,21.34299],[-157.9347,21.34254],[-157.9355,21.34267],[-157.94181,21.34562],[-157.943,21.34666]],[[-157.85789,21.29494],[-157.85595,21.29413],[-157.85249,21.29211],[-157.84981,21.29159],[-157.84581,21.29003],[-157.84123,21.28886]],[[-157.86669,21.32507],[-157.86518,21.3238],[-157.85649,21.31269],[-157.85346,21.31559],[-157.84986,21.32004],[-157.84659,21.32266],[-157.84534,21.3251],[-157.84559,21.32785],[-157.8453,21.32896],[-157.84015,21.33554],[-157.83958,21.33614],[-157.83732,21.33771],[-157.83417,21.34054],[-157.83044,21.34549],[-157.8294,21.34661],[-157.82477,21.34999],[-157.82347,21.35077],[-157.81759,21.35352],[-157.81613,21.35374],[-157.81289,21.35366],[-157.81138,21.35395],[-157.80979,21.35458],[-157.80732,21.35633],[-157.80662,21.35726],[-157.80564,21.35929],[-157.80417,21.36081],[-157.79719,21.36403],[-157.79169,21.36749],[-157.79007,21.36827],[-157.78843,21.3685],[-157.78681,21.36951],[-157.7856,21.36966],[-157.78448,21.36926],[-157.78398,21.36872],[-157.78339,21.36723],[-157.78184,21.36484],[-157.78103,21.36446],[-157.78051,21.36454],[-157.78004,21.36486],[-157.77979,21.36534],[-157.77982,21.366],[-157.78193,21.36854],[-157.78219,21.36941],[-157.78169,21.37367],[-157.78147,21.37418],[-157.78078,21.37494],[-157.79305,21.38726],[-157.79398,21.38839],[-157.79633,21.39213],[-157.79705,21.39369],[-157.79766,21.39653],[-157.79954,21.40144],[-157.79965,21.40267],[-157.79961,21.40282],[-157.79892,21.40272],[-157.79827,21.40289],[-157.79403,21.40522]],[[-157.8194,21.29041],[-157.81846,21.29016],[-157.81548,21.2908],[-157.81312,21.28903],[-157.81194,21.28915],[-157.81133,21.28902],[-157.80691,21.2868],[-157.80808,21.2874]],[[-157.83575,21.2907],[-157.83671,21.29283],[-157.83695,21.2973],[-157.85475,21.30361],[-157.85403,21.30387],[-157.85285,21.30502],[-157.85579,21.30679],[-157.8581,21.30507],[-157.86122,21.30344],[-157.86324,21.30188],[-157.86308,21.29943],[-157.86348,21.30316]],[[-158.03277,21.38435],[-158.02766,21.37789],[-158.02687,21.37637],[-158.02626,21.3745],[-158.02607,21.37128],[-158.02662,21.36567],[-158.02732,21.36378],[-158.0294,21.3601],[-158.02965,21.35878],[-158.02959,21.35755],[-158.02308,21.33367],[-158.0219,21.33105],[-158.01749,21.32415],[-158.02175,21.33112],[-158.02278,21.33337],[-158.02946,21.35793],[-158.02944,21.35907],[-158.02912,21.36036],[-158.02713,21.36371],[-158.02645,21.36562],[-158.02582,21.37177],[-158.02618,21.37497],[-158.02669,21.37645],[-158.02774,21.37833],[-158.03266,21.3845]],[[-157.71523,21.28313],[-157.7195,21.28589],[-157.72092,21.28625],[-157.72231,21.28624],[-157.72611,21.28532],[-157.7312,21.28272],[-157.73339,21.28243],[-157.73923,21.28088],[-157.74295,21.28042],[-157.75096,21.27843],[-157.75401,21.27812],[-157.75869,21.27702],[-157.76583,21.27601],[-157.76683,21.27605],[-157.77374,21.27729],[-157.79072,21.27916],[-157.79193,21.27913],[-157.79425,21.27857],[-157.79592,21.27862],[-157.79707,21.27888],[-157.81044,21.28563],[-157.81128,21.28622],[-157.81363,21.2885],[-157.81831,21.29141],[-157.82119,21.29457],[-157.82417,21.29631],[-157.83019,21.29857],[-157.83563,21.30197],[-157.84002,21.30275],[-157.84997,21.30632],[-157.85076,21.30701],[-157.85126,21.30778],[-157.85249,21.31148],[-157.85328,21.31291],[-157.86133,21.32291],[-157.86254,21.32364],[-157.86469,21.32408],[-157.86601,21.32479],[-157.87049,21.33091],[-157.87293,21.33321],[-157.87451,21.3344],[-157.87655,21.33544],[-157.87851,21.33608],[-157.88173,21.3366],[-157.88395,21.33781],[-157.88511,21.33753],[-157.88825,21.33527],[-157.8898,21.3346],[-157.89154,21.33438],[-157.89577,21.3347]],[[-157.79969,21.40297],[-157.80402,21.40384],[-157.80542,21.40371],[-157.80701,21.40315],[-157.80723,21.40879],[-157.80762,21.41013],[-157.81341,21.41681],[-157.81515,21.41955],[-157.8135,21.41674],[-157.80796,21.4104],[-157.8074,21.40894],[-157.80709,21.40312],[-157.80835,21.40235],[-157.80971,21.40064],[-157.81018,21.3991],[-157.81064,21.39606],[-157.81099,21.39519],[-157.81241,21.3938],[-157.81485,21.39282],[-157.81618,21.39195],[-157.81672,21.3911],[-157.81692,21.39022],[-157.81685,21.3892],[-157.81531,21.38644],[-157.8151,21.38395],[-157.81485,21.38326],[-157.81383,21.38218],[-157.81192,21.38107],[-157.81167,21.38051],[-157.81179,21.37976],[-157.81289,21.3788],[-157.81413,21.37806],[-157.82418,21.37351],[-157.8303,21.3702],[-157.84698,21.36535],[-157.85138,21.36327],[-157.85406,21.36155],[-157.85634,21.35965],[-157.8586,21.35666],[-157.85947,21.3551],[-157.8609,21.35165],[-157.86171,21.35046],[-157.86293,21.34931],[-157.86648,21.347],[-157.86717,21.34624],[-157.8677,21.34496],[-157.86803,21.33957],[-157.86842,21.3383],[-157.8704,21.33558],[-157.87132,21.33462],[-157.87211,21.33408],[-157.8737,21.33378],[-157.87389,21.3334],[-157.8738,21.33257],[-157.87413,21.33211],[-157.8707,21.33492],[-157.86832,21.33814],[-157.86788,21.33956],[-157.86749,21.34519],[-157.86703,21.34615],[-157.86625,21.347],[-157.86282,21.34923],[-157.8616,21.35038],[-157.86081,21.35161],[-157.85942,21.35495],[-157.85843,21.35672],[-157.85641,21.35943],[-157.854,21.36147],[-157.85174,21.36296],[-157.84676,21.36533],[-157.83025,21.37011],[-157.82329,21.37382],[-157.8183,21.37568],[-157.8152,21.37717],[-157.81325,21.37822],[-157.81176,21.37934],[-157.81146,21.38021],[-157.81182,21.38113],[-157.81418,21.38259],[-157.8149,21.38365],[-157.81521,21.38647],[-157.8168,21.38954],[-157.81658,21.39104],[-157.81567,21.39219],[-157.81215,21.39377],[-157.81118,21.39464],[-157.81049,21.39588],[-157.81009,21.39876],[-157.80955,21.40057],[-157.80883,21.40165],[-157.80709,21.40312],[-157.80699,21.40301],[-157.80538,21.40359],[-157.80398,21.40371],[-157.79961,21.40282],[-157.79958,21.40294]],[[-157.89919,21.33498],[-157.9268,21.33915],[-157.92838,21.33967],[-157.92988,21.34052],[-157.9312,21.34167],[-157.93209,21.34276],[-157.93307,21.3449],[-157.9334,21.34723],[-157.93129,21.35814],[-157.9304,21.36107],[-157.92549,21.37169],[-157.92517,21.37338],[-157.92538,21.37465],[-157.9258,21.37555],[-157.93214,21.38414],[-157.9336,21.38559],[-157.93482,21.38638],[-157.93614,21.38695],[-157.95366,21.39327],[-157.95526,21.39343],[-157.95691,21.39325],[-157.96454,21.39036],[-157.9664,21.39001],[-157.96836,21.38998],[-157.97105,21.39053],[-157.98213,21.39489]],[[-157.76015,21.42814],[-157.76037,21.42658],[-157.76181,21.42187],[-157.76287,21.41329],[-157.7636,21.41066],[-157.76491,21.40819],[-157.77201,21.39818],[-157.77261,21.39683],[-157.77371,21.39242],[-157.7748,21.39053],[-157.77682,21.38867],[-157.78049,21.38631],[-157.7818,21.38566],[-157.78436,21.38505],[-157.78876,21.38513],[-157.79092,21.38466],[-157.79213,21.38396],[-157.7966,21.38045],[-157.79897,21.37912],[-157.80029,21.37876],[-157.80191,21.37867],[-157.80474,21.37927],[-157.80682,21.38061],[-157.81173,21.3855],[-157.81285,21.38744],[-157.81323,21.38909],[-157.8127,21.39695],[-157.81315,21.39942],[-157.81368,21.40039],[-157.81451,21.40134],[-157.8172,21.40389],[-157.8186,21.40471],[-157.82056,21.40525],[-157.82224,21.40509],[-157.82371,21.40453],[-157.8265,21.4027],[-157.82778,21.40224],[-157.82894,21.40215],[-157.83014,21.40236],[-157.83271,21.40336],[-157.83499,21.40392],[-157.83705,21.40407],[-157.84253,21.40362],[-157.84486,21.40374],[-157.84703,21.4041],[-157.85318,21.40585],[-157.85597,21.40636],[-157.85951,21.40664],[-157.86289,21.40656],[-157.8667,21.406],[-157.86935,21.40515],[-157.87097,21.40439],[-157.87394,21.40248],[-157.87741,21.39936],[-157.87979,21.39784],[-157.88196,21.39703],[-157.88556,21.39611],[-157.89194,21.39284],[-157.89414,21.39077],[-157.89787,21.38584],[-157.902,21.38169],[-157.90336,21.38063],[-157.90589,21.37912],[-157.90718,21.37803],[-157.90813,21.37681],[-157.91025,21.37258],[-157.91109,21.37159],[-157.91209,21.37095],[-157.91311,21.37059],[-157.9176,21.36974],[-157.91879,21.36972]],[[-157.88741,21.33566],[-157.88527,21.33719],[-157.88416,21.33741],[-157.88174,21.33628],[-157.8775,21.33563],[-157.87569,21.33493],[-157.87435,21.33415],[-157.873,21.33311],[-157.87047,21.33067],[-157.86747,21.32639],[-157.86592,21.32455],[-157.8647,21.32395],[-157.86267,21.32351],[-157.86138,21.32263],[-157.85334,21.31271],[-157.85265,21.31146],[-157.85125,21.30746],[-157.85031,21.30637],[-157.8487,21.3056],[-157.84007,21.30263],[-157.83566,21.30185],[-157.83016,21.29842],[-157.82423,21.29618],[-157.82116,21.29439],[-157.8184,21.29133],[-157.81376,21.28843],[-157.81064,21.28553],[-157.79703,21.27873],[-157.79465,21.27841],[-157.7919,21.279],[-157.79073,21.27903],[-157.77339,21.27707],[-157.76683,21.27588],[-157.76555,21.27588],[-157.76002,21.27662],[-157.75421,21.27792],[-157.74948,21.27855],[-157.74331,21.28022],[-157.73919,21.28074],[-157.73322,21.28235],[-157.73101,21.28265],[-157.72612,21.28515],[-157.7226,21.28605],[-157.72068,21.28607],[-157.71954,21.28576],[-157.71531,21.28302]],[[-157.98536,21.39569],[-157.98343,21.39605],[-157.98053,21.39553],[-157.9761,21.39572],[-157.96872,21.39326],[-157.96484,21.39184],[-157.93689,21.379],[-157.93349,21.37632],[-157.93293,21.37535],[-157.93278,21.37407],[-157.93321,21.37292],[-157.93623,21.36771],[-157.9377,21.36443]],[[-157.93005,21.34108],[-157.93102,21.34265],[-157.93222,21.34389],[-157.93308,21.34622],[-157.9344,21.34819],[-157.93767,21.36241],[-157.93773,21.36366],[-157.93754,21.36429]],[[-157.88808,21.3329],[-157.88903,21.33336],[-157.88911,21.33391]],[[-157.88938,21.33325],[-157.88825,21.33283]],[[-157.87413,21.33211],[-157.87554,21.33093],[-157.87373,21.33006],[-157.87123,21.32826],[-157.86913,21.32533],[-157.86759,21.32235],[-157.86479,21.3184],[-157.86704,21.31852],[-157.87519,21.32328],[-157.8829,21.32983],[-157.8857,21.33183],[-157.88725,21.33257]],[[-157.93098,21.34036],[-157.92969,21.33973],[-157.92626,21.3387],[-157.89893,21.33454]],[[-157.86415,21.30911],[-157.86424,21.31005],[-157.86496,21.31173],[-157.86509,21.31306]],[[-157.85342,21.31117],[-157.85411,21.31074],[-157.85433,21.31027],[-157.8621,21.31997],[-157.86383,21.31863],[-157.86479,21.3184],[-157.86429,21.3167]],[[-157.81761,21.28968],[-157.81477,21.28872],[-157.81312,21.28903]],[[-157.88399,21.33758],[-157.88232,21.33608],[-157.88245,21.33637],[-157.88232,21.3371],[-157.88345,21.33801],[-157.8843,21.33898]],[[-157.86516,21.31436],[-157.86539,21.31505],[-157.86617,21.31537],[-157.86848,21.31433],[-157.87049,21.31368],[-157.87314,21.31404],[-157.87386,21.31453],[-157.87522,21.3171]],[[-157.86526,21.31288],[-157.86516,21.31173],[-157.86437,21.30971],[-157.86437,21.30796]],[[-157.93536,21.37771],[-157.93449,21.37676],[-157.9338,21.37631],[-157.92902,21.37528],[-157.92432,21.37243],[-157.92265,21.37208],[-157.91898,21.372],[-157.91086,21.36879],[-157.90961,21.36847],[-157.90688,21.36828],[-157.90543,21.36765],[-157.90011,21.3615],[-157.8998,21.36067],[-157.89957,21.35816],[-157.89925,21.3571],[-157.89849,21.35593],[-157.89694,21.35436],[-157.89654,21.35358],[-157.89641,21.35073],[-157.89605,21.34934],[-157.89558,21.3484],[-157.89288,21.34453],[-157.89222,21.34391],[-157.89101,21.34323],[-157.88796,21.34242],[-157.88693,21.3419],[-157.88613,21.34112],[-157.88369,21.33757],[-157.88301,21.33698],[-157.88146,21.33631],[-157.8797,21.33606]],[[-157.87744,21.32028],[-157.87893,21.32121],[-157.88206,21.32432],[-157.88561,21.32735],[-157.88631,21.32825],[-157.88744,21.33066],[-157.88909,21.33218]],[[-158.08009,21.3365],[-158.07951,21.33743],[-158.0767,21.3396],[-158.07982,21.33732],[-158.08057,21.33562],[-158.08238,21.33377],[-158.08232,21.33365],[-158.08059,21.33537],[-158.08009,21.3365]],[[-158.0767,21.3396],[-158.07545,21.34048],[-158.07396,21.3411],[-158.07128,21.34311],[-158.06904,21.34503],[-158.06454,21.34962],[-158.06267,21.35308],[-158.06124,21.35647],[-158.06067,21.35741],[-158.05991,21.35823],[-158.05704,21.36035],[-158.0548,21.36261],[-158.0538,21.36405],[-158.05285,21.36597],[-158.05197,21.36712],[-158.04127,21.37417],[-158.03203,21.37444]],[[-157.84026,21.28799],[-157.84065,21.2887],[-157.84143,21.28905],[-157.84593,21.29023],[-157.84988,21.29176],[-157.85239,21.29223],[-157.85618,21.29439],[-157.86039,21.29623],[-157.86242,21.29831],[-157.86289,21.29898],[-157.863,21.29951],[-157.85982,21.30188],[-157.85553,21.30343],[-157.85434,21.30108],[-157.85206,21.29813],[-157.85093,21.29695],[-157.83723,21.29076],[-157.83569,21.29057],[-157.83463,21.28857]],[[-157.79127,21.27937],[-157.79292,21.27955],[-157.79167,21.2789]],[[-157.88728,21.33246],[-157.88576,21.33178],[-157.8831,21.32988],[-157.87519,21.32328]],[[-157.80707,21.40298],[-157.80699,21.40301]],[[-157.71127,21.28116],[-157.70987,21.28019],[-157.7049,21.27602],[-157.70355,21.27533],[-157.70224,21.27501],[-157.69902,21.27486],[-157.69474,21.27534],[-157.69352,21.2753],[-157.69159,21.27468],[-157.68937,21.27309],[-157.68871,21.27314],[-157.6884,21.27351],[-157.6878,21.27616],[-157.68749,21.27654],[-157.68548,21.27668],[-157.68269,21.27806],[-157.68192,21.27922],[-157.68053,21.27945],[-157.67905,21.28024],[-157.6782,21.28097],[-157.67785,21.28225],[-157.6765,21.28344],[-157.67499,21.28538],[-157.66291,21.29177],[-157.66219,21.29239],[-157.66164,21.29376],[-157.66171,21.29457],[-157.66265,21.29756],[-157.66244,21.29871],[-157.66051,21.30068],[-157.65713,21.30213],[-157.6566,21.30269],[-157.65651,21.30324],[-157.65724,21.30686],[-157.65736,21.30888],[-157.65807,21.3096],[-157.65949,21.30967],[-157.66032,21.3101],[-157.66144,21.31157],[-157.66172,21.31346],[-157.662,21.31411],[-157.66321,21.3153],[-157.66422,21.31568],[-157.66627,21.31577],[-157.66752,21.31614],[-157.67384,21.32153],[-157.69659,21.33193],[-157.70444,21.34063],[-157.71143,21.3462],[-157.71234,21.34653],[-157.7256,21.3486],[-157.72953,21.35129],[-157.72979,21.35198],[-157.72955,21.35327]],[[-157.98714,21.39533],[-157.98899,21.39472],[-157.9896,21.39481],[-157.99014,21.3952],[-157.99331,21.40104],[-157.99964,21.4102],[-158.00756,21.42238],[-158.00784,21.42311],[-158.00794,21.42452],[-158.00824,21.42518],[-158.00894,21.42589],[-158.00977,21.42627]],[[-158.0833,21.33534],[-158.08337,21.33772],[-158.08437,21.33771],[-158.08498,21.33716],[-158.08482,21.3357],[-158.08526,21.33501],[-158.09003,21.33364],[-158.0833,21.33534],[-158.08281,21.33424],[-158.08238,21.33377]],[[-157.74513,21.39333],[-157.74704,21.39207],[-157.74844,21.38942],[-157.75621,21.38086],[-157.75548,21.38146],[-157.74828,21.38934],[-157.74694,21.39196],[-157.74509,21.39321]],[[-158.10132,21.57406],[-158.10255,21.57546],[-158.10292,21.57643]],[[-158.01293,21.44186],[-158.01298,21.44252],[-158.01555,21.45085],[-158.01668,21.45739],[-158.01729,21.45827],[-158.01792,21.45877],[-158.02242,21.46099],[-158.02301,21.46158],[-158.02351,21.46245],[-158.02415,21.46738],[-158.02856,21.49088]],[[-157.80691,21.2868],[-157.79292,21.27955]],[[-157.92925,21.37579],[-157.93034,21.37646]],[[-157.87554,21.33093],[-157.87831,21.33219],[-157.87952,21.33382],[-157.88232,21.33608]],[[-157.82472,21.28755],[-157.82007,21.28774],[-157.81477,21.28872]],[[-158.04038,21.51535],[-158.04125,21.5137]],[[-157.85354,21.30953],[-157.85433,21.31027],[-157.85313,21.30891]],[[-157.8181,21.28982],[-157.81833,21.29011],[-157.81755,21.29031]],[[-158.01666,21.32277],[-158.01749,21.32415]],[[-157.82185,21.29193],[-157.8231,21.29285],[-157.82494,21.29493],[-157.85289,21.30511]],[[-157.88739,21.33025],[-157.88663,21.32839],[-157.88603,21.32756],[-157.88194,21.32401],[-157.8788,21.32087],[-157.87762,21.32017]],[[-157.83695,21.2973],[-157.83683,21.29925]],[[-157.93751,21.36436],[-157.93605,21.36787],[-157.93506,21.3695]],[[-157.93899,21.3443],[-157.94006,21.34462],[-157.94094,21.34449],[-157.94149,21.34401],[-157.94227,21.34268],[-157.94333,21.3417]],[[-157.81515,21.41955],[-157.82376,21.43325],[-157.82501,21.43438],[-157.82804,21.43603],[-157.82909,21.43683],[-157.83227,21.44135],[-157.83274,21.44292],[-157.83269,21.4475],[-157.83335,21.45021],[-157.8346,21.45269],[-157.83798,21.45715]],[[-157.86336,21.30185],[-157.86328,21.30236]],[[-158.07345,21.34154],[-158.07462,21.34084]],[[-157.86308,21.29943],[-157.86297,21.2989],[-157.86245,21.29818]],[[-157.81908,21.29016],[-157.81833,21.29011],[-157.81882,21.29017]],[[-157.8182,21.28997],[-157.81813,21.29016]],[[-157.83796,21.45718],[-157.83812,21.45727],[-157.83796,21.45718]],[[-157.86235,21.29805],[-157.86059,21.29623]],[[-158.04473,21.37182],[-158.04267,21.37325]],[[-157.75511,21.38206],[-157.75501,21.38198]]]}}]}