{"type":"FeatureCollection","name":"kauai ahupuaʻa (State of Hawaiʻi GIS, HistoricCultural/1, SHPD-corrected)","features":[{"type":"Feature","properties":{"id":6,"ahupuaa":"Kalihikai","moku":"Haleleʻa","acres":2424},"geometry":{"type":"Polygon","coordinates":[[[-159.4559,22.2257],[-159.4548,22.2253],[-159.4551,22.2239],[-159.4561,22.2226],[-159.4562,22.2197],[-159.4585,22.2118],[-159.4585,22.2104],[-159.4592,22.2093],[-159.4599,22.2035],[-159.4599,22.2013],[-159.4585,22.1956],[-159.4585,22.191],[-159.4565,22.1875],[-159.4568,22.1866],[-159.4564,22.1855],[-159.4571,22.1832],[-159.4589,22.1808],[-159.4588,22.18],[-159.4605,22.1771],[-159.4601,22.1727],[-159.4594,22.172],[-159.4585,22.1682],[-159.4578,22.167],[-159.4565,22.1663],[-159.4565,22.1655],[-159.456,22.1651],[-159.4465,22.1792],[-159.4425,22.1896],[-159.4386,22.2233],[-159.4396,22.2223],[-159.4432,22.2235],[-159.4482,22.2242],[-159.4495,22.225],[-159.4533,22.2251],[-159.4545,22.2259],[-159.4559,22.2257]]]}},{"type":"Feature","properties":{"id":7,"ahupuaa":"Wainiha","moku":"Haleleʻa","acres":15131},"geometry":{"type":"Polygon","coordinates":[[[-159.5554,22.225],[-159.5619,22.2198],[-159.5599,22.2131],[-159.5606,22.2119],[-159.5637,22.2098],[-159.5673,22.2094],[-159.5689,22.2077],[-159.5691,22.2066],[-159.5718,22.2038],[-159.5717,22.2028],[-159.5734,22.2006],[-159.5731,22.1997],[-159.5738,22.1991],[-159.5742,22.1972],[-159.5768,22.1923],[-159.5786,22.1854],[-159.5801,22.184],[-159.5827,22.1837],[-159.5841,22.1827],[-159.5869,22.1817],[-159.5905,22.1755],[-159.594,22.1723],[-159.5948,22.17],[-159.5972,22.1692],[-159.5974,22.1673],[-159.5966,22.1662],[-159.5966,22.1644],[-159.5972,22.1635],[-159.5975,22.1605],[-159.5982,22.1598],[-159.596,22.158],[-159.5944,22.1575],[-159.5941,22.1548],[-159.5932,22.1542],[-159.5905,22.1492],[-159.5886,22.1466],[-159.5873,22.1458],[-159.5872,22.1451],[-159.5859,22.1442],[-159.5852,22.1446],[-159.582,22.1442],[-159.5807,22.1427],[-159.5805,22.1409],[-159.5779,22.1393],[-159.5777,22.1382],[-159.5787,22.1364],[-159.5776,22.1357],[-159.5781,22.1342],[-159.5773,22.1324],[-159.5751,22.1313],[-159.5748,22.1302],[-159.5736,22.13],[-159.5732,22.1293],[-159.5715,22.1284],[-159.5698,22.1287],[-159.5683,22.1272],[-159.5679,22.1254],[-159.5643,22.1236],[-159.5636,22.1217],[-159.5639,22.12],[-159.563,22.1205],[-159.5617,22.1194],[-159.5614,22.1181],[-159.5557,22.1154],[-159.5554,22.115],[-159.5559,22.1144],[-159.5557,22.1129],[-159.552,22.1113],[-159.5509,22.1087],[-159.5499,22.1081],[-159.548,22.105],[-159.5447,22.1037],[-159.5435,22.1015],[-159.5435,22.0991],[-159.5423,22.0962],[-159.54,22.0937],[-159.5397,22.0925],[-159.538,22.0916],[-159.537,22.0893],[-159.536,22.0884],[-159.5369,22.086],[-159.5376,22.0853],[-159.5375,22.0827],[-159.5338,22.081],[-159.5331,22.0795],[-159.532,22.0787],[-159.5253,22.0779],[-159.523,22.0766],[-159.5204,22.0739],[-159.5189,22.074],[-159.5162,22.0763],[-159.5124,22.0745],[-159.5122,22.0733],[-159.5088,22.071],[-159.5071,22.0712],[-159.5059,22.0705],[-159.5028,22.0701],[-159.4998,22.0693],[-159.4987,22.0684],[-159.4981,22.0692],[-159.498,22.0708],[-159.4949,22.0731],[-159.4946,22.0745],[-159.495,22.0748],[-159.4951,22.0766],[-159.4937,22.0777],[-159.4943,22.0791],[-159.4951,22.0796],[-159.4952,22.0804],[-159.4961,22.081],[-159.4966,22.0824],[-159.4975,22.0832],[-159.497,22.085],[-159.4979,22.0863],[-159.4998,22.0871],[-159.4998,22.0895],[-159.4984,22.0923],[-159.4983,22.0935],[-159.4984,22.0956],[-159.4991,22.0961],[-159.4987,22.097],[-159.4996,22.0992],[-159.4992,22.1016],[-159.5061,22.1031],[-159.5118,22.106],[-159.5139,22.1093],[-159.5162,22.111],[-159.5167,22.1126],[-159.5176,22.1128],[-159.5191,22.1143],[-159.5222,22.1162],[-159.524,22.1165],[-159.5252,22.1173],[-159.5258,22.1191],[-159.5284,22.1226],[-159.5322,22.1254],[-159.5336,22.1288],[-159.535,22.13],[-159.5361,22.1333],[-159.5382,22.1359],[-159.5386,22.1372],[-159.5399,22.1376],[-159.5407,22.137],[-159.5412,22.1375],[-159.5424,22.1376],[-159.5434,22.1386],[-159.5438,22.1411],[-159.5454,22.1422],[-159.5459,22.1452],[-159.5482,22.1463],[-159.5482,22.1501],[-159.5496,22.1509],[-159.5517,22.1538],[-159.5505,22.157],[-159.5525,22.1576],[-159.5531,22.1592],[-159.5527,22.1599],[-159.5531,22.162],[-159.5521,22.1666],[-159.5523,22.1674],[-159.5499,22.1703],[-159.5495,22.172],[-159.5495,22.1733],[-159.5512,22.1781],[-159.5508,22.1792],[-159.5509,22.183],[-159.5517,22.1844],[-159.5511,22.187],[-159.5498,22.1889],[-159.5498,22.191],[-159.5478,22.1948],[-159.5485,22.1961],[-159.5478,22.2],[-159.5471,22.2017],[-159.5458,22.202],[-159.5415,22.2017],[-159.5385,22.2034],[-159.5377,22.2049],[-159.5375,22.2095],[-159.5365,22.2129],[-159.5331,22.2166],[-159.5335,22.2169],[-159.5356,22.2147],[-159.5381,22.2134],[-159.5407,22.2142],[-159.5418,22.2152],[-159.5415,22.2164],[-159.5419,22.2175],[-159.5439,22.2194],[-159.5444,22.2218],[-159.5457,22.2231],[-159.5511,22.225],[-159.552,22.2248],[-159.5522,22.2243],[-159.5554,22.225]]]}},{"type":"Feature","properties":{"id":43,"ahupuaa":"Nāwiliwili","moku":"Puna","acres":2602},"geometry":{"type":"Polygon","coordinates":[[[-159.4095,21.9776],[-159.3621,21.9549],[-159.362,21.952],[-159.3608,21.9514],[-159.361,21.9493],[-159.3606,21.949],[-159.3577,21.9487],[-159.3571,21.9491],[-159.357,21.9493],[-159.3578,21.9488],[-159.3609,21.9493],[-159.3608,21.9504],[-159.3581,21.95],[-159.3579,21.9495],[-159.3578,21.9503],[-159.3588,21.9528],[-159.3593,21.953],[-159.3586,21.9539],[-159.3536,21.9552],[-159.3529,21.953],[-159.3525,21.953],[-159.3522,21.9597],[-159.3523,21.9605],[-159.3537,21.9613],[-159.3537,21.9626],[-159.3571,21.9627],[-159.3581,21.9638],[-159.3605,21.9638],[-159.3681,21.9732],[-159.3747,21.9777],[-159.4079,21.9917],[-159.4216,21.9957],[-159.4095,21.9776]]]}},{"type":"Feature","properties":{"id":3,"ahupuaa":"Kīlauea","moku":"Koʻolau","acres":3767},"geometry":{"type":"Polygon","coordinates":[[[-159.4094,22.2246],[-159.4077,22.2175],[-159.4097,22.2096],[-159.412,22.2066],[-159.4154,22.2062],[-159.4177,22.1969],[-159.4215,22.1493],[-159.421,22.1492],[-159.4122,22.1498],[-159.4087,22.1521],[-159.408,22.1539],[-159.4067,22.1551],[-159.4061,22.1566],[-159.3969,22.2072],[-159.3913,22.2143],[-159.3856,22.2149],[-159.3852,22.2161],[-159.3873,22.2182],[-159.387,22.2222],[-159.3888,22.2223],[-159.3909,22.2233],[-159.3911,22.224],[-159.3902,22.2246],[-159.3908,22.2254],[-159.3916,22.2248],[-159.3916,22.2238],[-159.3952,22.2246],[-159.3966,22.2265],[-159.3971,22.2297],[-159.3976,22.2302],[-159.3994,22.2302],[-159.4012,22.2292],[-159.4011,22.2322],[-159.4022,22.2327],[-159.4031,22.2323],[-159.4023,22.2309],[-159.4034,22.2309],[-159.4042,22.2302],[-159.4049,22.2286],[-159.4044,22.228],[-159.4047,22.2272],[-159.4078,22.2251],[-159.4094,22.2246]]]}},{"type":"Feature","properties":{"id":4,"ahupuaa":"Hanalei","moku":"Haleleʻa","acres":16836},"geometry":{"type":"Polygon","coordinates":[[[-159.501,22.2045],[-159.4976,22.1966],[-159.4971,22.194],[-159.4974,22.1928],[-159.496,22.19],[-159.4946,22.1882],[-159.4932,22.1873],[-159.4924,22.1857],[-159.49,22.1856],[-159.4892,22.1838],[-159.4873,22.1821],[-159.4851,22.1786],[-159.4834,22.1783],[-159.4827,22.1776],[-159.4831,22.1737],[-159.485,22.172],[-159.4852,22.1696],[-159.4872,22.1662],[-159.4879,22.1637],[-159.4875,22.1604],[-159.4896,22.1533],[-159.4918,22.1521],[-159.4944,22.1495],[-159.4963,22.1483],[-159.4965,22.1471],[-159.4959,22.1444],[-159.495,22.143],[-159.4957,22.1408],[-159.4954,22.1376],[-159.4961,22.1361],[-159.4949,22.1337],[-159.4955,22.1298],[-159.4947,22.1273],[-159.4931,22.1246],[-159.492,22.1239],[-159.4915,22.1226],[-159.4882,22.1185],[-159.4882,22.1158],[-159.4896,22.1127],[-159.49,22.1106],[-159.4919,22.1072],[-159.4942,22.1053],[-159.4975,22.1036],[-159.4994,22.1018],[-159.4992,22.1],[-159.4996,22.0993],[-159.4987,22.097],[-159.4991,22.0961],[-159.4984,22.0956],[-159.4983,22.0935],[-159.4984,22.0923],[-159.4998,22.0895],[-159.4998,22.0871],[-159.4979,22.0863],[-159.497,22.085],[-159.4975,22.0832],[-159.4939,22.0783],[-159.4937,22.0775],[-159.4951,22.0766],[-159.495,22.0748],[-159.4946,22.0745],[-159.4949,22.0731],[-159.4937,22.0741],[-159.4928,22.0741],[-159.4873,22.073],[-159.4835,22.0736],[-159.4812,22.0746],[-159.4806,22.0761],[-159.4732,22.0807],[-159.4725,22.082],[-159.4716,22.0824],[-159.468,22.0866],[-159.4651,22.087],[-159.4633,22.0883],[-159.462,22.0886],[-159.4596,22.091],[-159.4588,22.0937],[-159.4566,22.0947],[-159.4557,22.096],[-159.4552,22.0958],[-159.4536,22.0969],[-159.4529,22.0963],[-159.4526,22.0976],[-159.4512,22.0994],[-159.4497,22.0996],[-159.4494,22.1013],[-159.4467,22.1005],[-159.445,22.1017],[-159.4434,22.1041],[-159.4436,22.1051],[-159.4425,22.1059],[-159.4426,22.1082],[-159.4404,22.109],[-159.4408,22.1104],[-159.4403,22.1116],[-159.4378,22.1129],[-159.4377,22.114],[-159.4357,22.1145],[-159.4348,22.1152],[-159.4351,22.1194],[-159.4382,22.1225],[-159.4381,22.1248],[-159.4401,22.1262],[-159.4402,22.1292],[-159.4424,22.1329],[-159.442,22.1353],[-159.4438,22.1364],[-159.4455,22.1382],[-159.4463,22.1404],[-159.4504,22.1398],[-159.4513,22.1402],[-159.452,22.1409],[-159.4519,22.1429],[-159.4525,22.1444],[-159.4544,22.1463],[-159.4567,22.1463],[-159.4592,22.1513],[-159.4587,22.1535],[-159.4596,22.1546],[-159.4595,22.1564],[-159.4578,22.1584],[-159.4552,22.1638],[-159.4565,22.1655],[-159.4565,22.1663],[-159.4581,22.1673],[-159.4592,22.1701],[-159.4594,22.172],[-159.4601,22.1727],[-159.4599,22.1738],[-159.4605,22.1753],[-159.4601,22.1782],[-159.4588,22.18],[-159.4589,22.1808],[-159.4582,22.182],[-159.4571,22.1832],[-159.4564,22.1855],[-159.4568,22.1866],[-159.4565,22.1875],[-159.4585,22.191],[-159.4585,22.1956],[-159.4599,22.2013],[-159.4599,22.2035],[-159.4592,22.2093],[-159.4585,22.2104],[-159.4585,22.2118],[-159.4562,22.2197],[-159.4561,22.2226],[-159.4551,22.2239],[-159.4548,22.2253],[-159.4559,22.2257],[-159.4599,22.2244],[-159.4619,22.2231],[-159.4643,22.2228],[-159.4679,22.2256],[-159.472,22.2259],[-159.4742,22.2283],[-159.4767,22.2298],[-159.4774,22.2289],[-159.4795,22.2294],[-159.4806,22.2285],[-159.4841,22.2289],[-159.4853,22.2296],[-159.4858,22.2295],[-159.4855,22.2292],[-159.4873,22.229],[-159.4885,22.2282],[-159.489,22.2273],[-159.4888,22.2267],[-159.4899,22.2266],[-159.4901,22.2258],[-159.4911,22.2262],[-159.4917,22.2255],[-159.492,22.2257],[-159.4922,22.2244],[-159.4931,22.2236],[-159.4962,22.223],[-159.498,22.2218],[-159.4987,22.2161],[-159.4971,22.213],[-159.4973,22.2097],[-159.4988,22.2065],[-159.501,22.2045]]]}},{"type":"Feature","properties":{"id":16,"ahupuaa":"Waipake","moku":"Koʻolau","acres":703},"geometry":{"type":"Polygon","coordinates":[[[-159.3501,22.2147],[-159.3573,22.202],[-159.3588,22.2006],[-159.3659,22.1895],[-159.3678,22.1854],[-159.3644,22.1872],[-159.3626,22.1861],[-159.3616,22.1871],[-159.3606,22.1867],[-159.3595,22.1871],[-159.3568,22.1912],[-159.3519,22.1954],[-159.3475,22.2017],[-159.3437,22.2054],[-159.3416,22.2083],[-159.3417,22.2088],[-159.3426,22.2088],[-159.3434,22.21],[-159.3454,22.2107],[-159.3467,22.2118],[-159.348,22.2119],[-159.3477,22.213],[-159.348,22.2136],[-159.35,22.2134],[-159.3501,22.2147]]]}},{"type":"Feature","properties":{"id":5,"ahupuaa":"Hāʻena","moku":"Haleleʻa","acres":1847},"geometry":{"type":"Polygon","coordinates":[[[-159.5956,22.2119],[-159.5928,22.2115],[-159.5866,22.2124],[-159.5842,22.212],[-159.5846,22.2067],[-159.5857,22.2051],[-159.5858,22.204],[-159.5848,22.2003],[-159.5846,22.1958],[-159.5858,22.1926],[-159.586,22.1883],[-159.5869,22.1849],[-159.5863,22.1831],[-159.5869,22.1817],[-159.5841,22.1827],[-159.5827,22.1837],[-159.5801,22.184],[-159.5786,22.1854],[-159.5768,22.1923],[-159.5742,22.1972],[-159.5738,22.1991],[-159.5731,22.1997],[-159.5734,22.2006],[-159.5717,22.2028],[-159.5718,22.2038],[-159.5691,22.2066],[-159.5689,22.2077],[-159.5673,22.2094],[-159.5637,22.2098],[-159.5606,22.2119],[-159.5599,22.2131],[-159.5619,22.2198],[-159.5554,22.225],[-159.5572,22.2262],[-159.5588,22.2262],[-159.561,22.2239],[-159.5656,22.2206],[-159.5671,22.2207],[-159.5684,22.2219],[-159.5722,22.2235],[-159.5746,22.2235],[-159.576,22.224],[-159.5801,22.2238],[-159.5822,22.2227],[-159.5838,22.2205],[-159.5854,22.2205],[-159.5856,22.2194],[-159.5871,22.2185],[-159.5907,22.2146],[-159.5925,22.214],[-159.5939,22.2126],[-159.5956,22.2119]]]}},{"type":"Feature","properties":{"id":8,"ahupuaa":"Kāhili","moku":"Koʻolau","acres":1865},"geometry":{"type":"Polygon","coordinates":[[[-159.387,22.2222],[-159.3873,22.2182],[-159.3852,22.2161],[-159.3856,22.2149],[-159.3913,22.2143],[-159.3969,22.2072],[-159.4061,22.1566],[-159.4087,22.1521],[-159.4107,22.1507],[-159.4071,22.1484],[-159.4067,22.1483],[-159.3889,22.1856],[-159.3823,22.2098],[-159.376,22.2169],[-159.3797,22.2163],[-159.3807,22.2157],[-159.3835,22.2165],[-159.3847,22.2177],[-159.3854,22.2198],[-159.3833,22.2211],[-159.3819,22.2239],[-159.3824,22.2249],[-159.3844,22.2231],[-159.387,22.2222]]]}},{"type":"Feature","properties":{"id":9,"ahupuaa":"Nāmāhana","moku":"Koʻolau","acres":392},"geometry":{"type":"Polygon","coordinates":[[[-159.4184,22.2225],[-159.4154,22.2062],[-159.412,22.2066],[-159.4097,22.2096],[-159.4077,22.2175],[-159.4094,22.2246],[-159.4124,22.2237],[-159.414,22.2238],[-159.4143,22.2233],[-159.4149,22.2238],[-159.415,22.2233],[-159.4157,22.2235],[-159.4158,22.2231],[-159.4184,22.2225]]]}},{"type":"Feature","properties":{"id":10,"ahupuaa":"Kalihiwai","moku":"Haleleʻa","acres":8550},"geometry":{"type":"Polygon","coordinates":[[[-159.4386,22.2233],[-159.4425,22.1896],[-159.4465,22.1792],[-159.456,22.1651],[-159.4552,22.1638],[-159.4554,22.1628],[-159.4578,22.1584],[-159.4595,22.1564],[-159.4596,22.1546],[-159.4587,22.1535],[-159.4592,22.1513],[-159.4567,22.1463],[-159.4544,22.1463],[-159.4525,22.1444],[-159.4519,22.1429],[-159.452,22.1409],[-159.4513,22.1402],[-159.4504,22.1398],[-159.4463,22.1404],[-159.4455,22.1382],[-159.4438,22.1364],[-159.442,22.1353],[-159.4424,22.1329],[-159.4402,22.1292],[-159.4401,22.1262],[-159.4381,22.1248],[-159.4382,22.1225],[-159.4351,22.1194],[-159.435,22.115],[-159.432,22.115],[-159.4292,22.1123],[-159.4233,22.1114],[-159.4228,22.1115],[-159.4217,22.1132],[-159.4205,22.1134],[-159.4179,22.1155],[-159.417,22.1189],[-159.416,22.1194],[-159.4145,22.1221],[-159.4131,22.1225],[-159.4113,22.1238],[-159.4095,22.1268],[-159.4101,22.128],[-159.4097,22.1303],[-159.4103,22.1318],[-159.4132,22.1349],[-159.4141,22.1353],[-159.4167,22.1389],[-159.417,22.1406],[-159.4181,22.1421],[-159.4192,22.1425],[-159.421,22.1444],[-159.4218,22.1464],[-159.423,22.1477],[-159.4229,22.1491],[-159.4215,22.1493],[-159.4177,22.1969],[-159.4154,22.2062],[-159.4184,22.2225],[-159.4207,22.2224],[-159.4224,22.2236],[-159.4234,22.2238],[-159.4236,22.2234],[-159.4238,22.2238],[-159.4239,22.2233],[-159.4245,22.2233],[-159.4247,22.2237],[-159.4255,22.2218],[-159.4252,22.2214],[-159.426,22.2202],[-159.4257,22.2178],[-159.4278,22.2165],[-159.4302,22.2176],[-159.4316,22.2173],[-159.4336,22.2205],[-159.4359,22.223],[-159.4386,22.2233]]]}},{"type":"Feature","properties":{"id":11,"ahupuaa":"Lumahaʻi","moku":"Haleleʻa","acres":9063},"geometry":{"type":"Polygon","coordinates":[[[-159.5335,22.2169],[-159.5331,22.2166],[-159.5365,22.2129],[-159.5375,22.2095],[-159.5377,22.2049],[-159.5385,22.2034],[-159.5415,22.2017],[-159.5458,22.202],[-159.5471,22.2017],[-159.5478,22.2],[-159.5485,22.197],[-159.5478,22.1948],[-159.5498,22.191],[-159.5498,22.1889],[-159.5511,22.187],[-159.5517,22.1844],[-159.5509,22.183],[-159.5508,22.1792],[-159.5512,22.1781],[-159.5495,22.1733],[-159.5499,22.1703],[-159.5523,22.1674],[-159.5521,22.1666],[-159.5531,22.162],[-159.5527,22.1609],[-159.5531,22.1592],[-159.5525,22.1576],[-159.5505,22.157],[-159.5517,22.1538],[-159.5496,22.1509],[-159.5482,22.1501],[-159.5482,22.1463],[-159.5459,22.1452],[-159.5454,22.1422],[-159.5438,22.1411],[-159.5434,22.1386],[-159.5424,22.1376],[-159.5412,22.1375],[-159.5407,22.137],[-159.5399,22.1376],[-159.5386,22.1372],[-159.5382,22.1359],[-159.5361,22.1333],[-159.535,22.13],[-159.5336,22.1288],[-159.5322,22.1254],[-159.5284,22.1226],[-159.5258,22.1191],[-159.5252,22.1173],[-159.524,22.1165],[-159.5222,22.1162],[-159.5191,22.1143],[-159.5176,22.1128],[-159.5167,22.1126],[-159.5162,22.111],[-159.5139,22.1093],[-159.5118,22.106],[-159.5061,22.1031],[-159.4994,22.1018],[-159.4975,22.1036],[-159.4942,22.1053],[-159.4919,22.1072],[-159.49,22.1106],[-159.4896,22.1127],[-159.4882,22.1158],[-159.4882,22.1185],[-159.4945,22.1269],[-159.4955,22.1298],[-159.4955,22.1311],[-159.4966,22.1335],[-159.4977,22.1341],[-159.4983,22.1368],[-159.5006,22.1399],[-159.4987,22.1425],[-159.5002,22.1443],[-159.5011,22.1466],[-159.5026,22.1475],[-159.5026,22.1481],[-159.5087,22.1548],[-159.5094,22.1565],[-159.5127,22.1593],[-159.5139,22.1634],[-159.5147,22.1642],[-159.5175,22.1648],[-159.5198,22.1646],[-159.5241,22.1654],[-159.5288,22.1704],[-159.5293,22.1735],[-159.5308,22.1767],[-159.5309,22.1795],[-159.5322,22.1817],[-159.5316,22.1827],[-159.5318,22.1844],[-159.5293,22.1879],[-159.5299,22.1896],[-159.5297,22.1974],[-159.5301,22.2001],[-159.5289,22.2026],[-159.528,22.2034],[-159.5266,22.2098],[-159.5231,22.2107],[-159.5227,22.2146],[-159.5235,22.2143],[-159.5315,22.2161],[-159.5322,22.2165],[-159.5317,22.2177],[-159.5335,22.2169]]]}},{"type":"Feature","properties":{"id":12,"ahupuaa":"West Waiakalua","moku":"Koʻolau","acres":330},"geometry":{"type":"Polygon","coordinates":[[[-159.376,22.2169],[-159.3823,22.2098],[-159.3889,22.1856],[-159.3832,22.1918],[-159.3809,22.2],[-159.3806,22.2038],[-159.3748,22.2118],[-159.3735,22.2159],[-159.376,22.2169]]]}},{"type":"Feature","properties":{"id":13,"ahupuaa":"East Waiakalua","moku":"Koʻolau","acres":524},"geometry":{"type":"Polygon","coordinates":[[[-159.3735,22.2159],[-159.3748,22.2118],[-159.3806,22.2038],[-159.3809,22.2],[-159.3832,22.1918],[-159.3859,22.189],[-159.3848,22.1882],[-159.386,22.1858],[-159.3846,22.1836],[-159.3842,22.18],[-159.3843,22.1885],[-159.3806,22.1933],[-159.3735,22.1983],[-159.3686,22.2062],[-159.3678,22.2083],[-159.3681,22.2125],[-159.3675,22.2132],[-159.3715,22.2154],[-159.3735,22.2159]]]}},{"type":"Feature","properties":{"id":14,"ahupuaa":"Waikoko","moku":"Haleleʻa","acres":457},"geometry":{"type":"Polygon","coordinates":[[[-159.5227,22.2143],[-159.5231,22.2107],[-159.5266,22.2098],[-159.528,22.2034],[-159.5289,22.2026],[-159.5301,22.2001],[-159.5298,22.1939],[-159.5259,22.1949],[-159.5226,22.1974],[-159.5164,22.2068],[-159.5169,22.2099],[-159.5178,22.2114],[-159.5171,22.2136],[-159.5174,22.2141],[-159.5182,22.2138],[-159.5184,22.2143],[-159.5195,22.2146],[-159.5194,22.2151],[-159.5209,22.2148],[-159.5204,22.2145],[-159.5213,22.214],[-159.5227,22.2143]]]}},{"type":"Feature","properties":{"id":15,"ahupuaa":"Pīlaʻa","moku":"Koʻolau","acres":1474},"geometry":{"type":"Polygon","coordinates":[[[-159.3675,22.2131],[-159.3681,22.2125],[-159.3678,22.2083],[-159.3686,22.2062],[-159.3735,22.1983],[-159.3806,22.1933],[-159.3843,22.1885],[-159.3842,22.18],[-159.3799,22.1726],[-159.3783,22.1724],[-159.3764,22.1745],[-159.3728,22.174],[-159.3732,22.175],[-159.3746,22.1761],[-159.3803,22.1774],[-159.3805,22.1781],[-159.3797,22.1793],[-159.3768,22.1794],[-159.3754,22.1785],[-159.3692,22.1851],[-159.3678,22.1854],[-159.3659,22.1895],[-159.3588,22.2006],[-159.3573,22.202],[-159.3501,22.2147],[-159.3515,22.214],[-159.3532,22.2147],[-159.3543,22.2144],[-159.3557,22.2125],[-159.3578,22.2115],[-159.3609,22.2118],[-159.3621,22.2112],[-159.3628,22.2116],[-159.3641,22.2114],[-159.367,22.2125],[-159.3675,22.2131]]]}},{"type":"Feature","properties":{"id":17,"ahupuaa":"Hanakāpīʻai","moku":"Nāpali","acres":2800},"geometry":{"type":"Polygon","coordinates":[[[-159.6119,22.2016],[-159.6112,22.1996],[-159.6097,22.1975],[-159.6095,22.1962],[-159.6062,22.1927],[-159.6052,22.1894],[-159.6058,22.1866],[-159.6051,22.186],[-159.6041,22.1829],[-159.6055,22.1802],[-159.608,22.1782],[-159.6074,22.1758],[-159.6078,22.1747],[-159.6109,22.1731],[-159.6116,22.1723],[-159.6112,22.1699],[-159.6101,22.1697],[-159.6095,22.1688],[-159.6099,22.168],[-159.6096,22.1662],[-159.6103,22.1649],[-159.6121,22.1636],[-159.6124,22.1628],[-159.6118,22.1621],[-159.612,22.1606],[-159.6129,22.1592],[-159.6129,22.1581],[-159.6141,22.1568],[-159.6127,22.1563],[-159.6104,22.1566],[-159.609,22.1562],[-159.6066,22.1573],[-159.6029,22.1574],[-159.6025,22.1581],[-159.6015,22.1583],[-159.6006,22.1599],[-159.6,22.1594],[-159.5976,22.1603],[-159.5972,22.1635],[-159.5966,22.1644],[-159.5966,22.1662],[-159.5974,22.1673],[-159.5972,22.1692],[-159.5948,22.17],[-159.594,22.1723],[-159.5905,22.1755],[-159.5871,22.1811],[-159.5863,22.1831],[-159.5869,22.1849],[-159.586,22.1883],[-159.5858,22.1926],[-159.5846,22.1958],[-159.5848,22.2003],[-159.5858,22.204],[-159.5857,22.2051],[-159.5846,22.2067],[-159.5842,22.212],[-159.5866,22.2124],[-159.5928,22.2115],[-159.5956,22.2119],[-159.5983,22.2084],[-159.5992,22.2086],[-159.6037,22.2067],[-159.6053,22.2059],[-159.6061,22.204],[-159.6094,22.203],[-159.6097,22.2023],[-159.6119,22.2016]]]}},{"type":"Feature","properties":{"id":18,"ahupuaa":"Lepeuli","moku":"Koʻolau","acres":867},"geometry":{"type":"Polygon","coordinates":[[[-159.3416,22.2083],[-159.3437,22.2054],[-159.3475,22.2017],[-159.3519,22.1954],[-159.3568,22.1912],[-159.3595,22.1871],[-159.3606,22.1867],[-159.3616,22.1871],[-159.3626,22.1861],[-159.3644,22.1872],[-159.3692,22.1851],[-159.3754,22.1785],[-159.3768,22.1794],[-159.3797,22.1793],[-159.3805,22.1781],[-159.3803,22.1774],[-159.3746,22.1761],[-159.3732,22.175],[-159.3657,22.177],[-159.3674,22.1785],[-159.3652,22.1799],[-159.3612,22.1812],[-159.359,22.184],[-159.357,22.1831],[-159.3534,22.1833],[-159.3528,22.1847],[-159.3522,22.1844],[-159.3521,22.1858],[-159.3512,22.1865],[-159.3499,22.1894],[-159.3487,22.189],[-159.3487,22.192],[-159.3351,22.2038],[-159.3416,22.2083]]]}},{"type":"Feature","properties":{"id":24,"ahupuaa":"Pōhakuao","moku":"Nāpali","acres":592},"geometry":{"type":"Polygon","coordinates":[[[-159.6398,22.1833],[-159.6388,22.1808],[-159.6385,22.1781],[-159.6352,22.1766],[-159.6315,22.1765],[-159.6262,22.1745],[-159.6249,22.1779],[-159.6249,22.1811],[-159.6236,22.1843],[-159.6234,22.1868],[-159.6237,22.1901],[-159.6252,22.1912],[-159.6261,22.1946],[-159.6253,22.1959],[-159.6261,22.1957],[-159.6275,22.1941],[-159.6312,22.1924],[-159.6335,22.19],[-159.6342,22.1886],[-159.6369,22.1866],[-159.6371,22.1855],[-159.6393,22.1841],[-159.6398,22.1833]]]}},{"type":"Feature","properties":{"id":19,"ahupuaa":"Waipā","moku":"Haleleʻa","acres":1666},"geometry":{"type":"Polygon","coordinates":[[[-159.5164,22.2068],[-159.5226,22.1974],[-159.5259,22.1949],[-159.5298,22.1939],[-159.5299,22.1896],[-159.5293,22.1879],[-159.5318,22.1844],[-159.5316,22.1827],[-159.5322,22.1817],[-159.5309,22.1795],[-159.5306,22.1759],[-159.5293,22.1735],[-159.5288,22.1704],[-159.5278,22.169],[-159.5241,22.1654],[-159.5147,22.1642],[-159.515,22.1661],[-159.5144,22.1679],[-159.514,22.1723],[-159.5149,22.1736],[-159.5154,22.1761],[-159.5147,22.1799],[-159.5145,22.1847],[-159.5134,22.1868],[-159.5139,22.1876],[-159.5139,22.1891],[-159.5136,22.1902],[-159.5098,22.1933],[-159.5095,22.1971],[-159.5083,22.1986],[-159.5066,22.2026],[-159.5092,22.2032],[-159.5104,22.2027],[-159.5129,22.2036],[-159.5164,22.2068]]]}},{"type":"Feature","properties":{"id":20,"ahupuaa":"Waiʻoli","moku":"Haleleʻa","acres":3468},"geometry":{"type":"Polygon","coordinates":[[[-159.5066,22.2026],[-159.5083,22.1986],[-159.5095,22.1971],[-159.5098,22.1933],[-159.5137,22.19],[-159.5139,22.1876],[-159.5134,22.1868],[-159.5145,22.1847],[-159.5147,22.1799],[-159.5154,22.1761],[-159.5149,22.1736],[-159.514,22.1723],[-159.515,22.1659],[-159.5147,22.1642],[-159.5132,22.1619],[-159.5127,22.1593],[-159.5094,22.1565],[-159.5087,22.1548],[-159.5026,22.1481],[-159.5026,22.1475],[-159.5011,22.1466],[-159.5002,22.1443],[-159.4987,22.1425],[-159.5006,22.1399],[-159.4983,22.1368],[-159.4977,22.1341],[-159.4967,22.1337],[-159.4955,22.1311],[-159.4949,22.1337],[-159.4961,22.1361],[-159.4954,22.1376],[-159.4957,22.1408],[-159.495,22.143],[-159.4961,22.145],[-159.4964,22.148],[-159.4918,22.1521],[-159.4896,22.1533],[-159.4875,22.1604],[-159.4879,22.1637],[-159.4872,22.1662],[-159.4852,22.1696],[-159.485,22.172],[-159.4831,22.1737],[-159.4827,22.1776],[-159.4834,22.1783],[-159.4851,22.1786],[-159.4873,22.1821],[-159.4892,22.1838],[-159.49,22.1856],[-159.4924,22.1857],[-159.4932,22.1873],[-159.4946,22.1882],[-159.496,22.19],[-159.4974,22.1928],[-159.4971,22.194],[-159.4976,22.1966],[-159.501,22.2045],[-159.5036,22.2031],[-159.5066,22.2026]]]}},{"type":"Feature","properties":{"id":21,"ahupuaa":"Kaʻakaʻaniu","moku":"Koʻolau","acres":137},"geometry":{"type":"Polygon","coordinates":[[[-159.3351,22.2038],[-159.345,22.195],[-159.3427,22.1928],[-159.3397,22.1945],[-159.3323,22.2008],[-159.3348,22.2019],[-159.3351,22.2038]]]}},{"type":"Feature","properties":{"id":22,"ahupuaa":"Hanakoa","moku":"Nāpali","acres":1694},"geometry":{"type":"Polygon","coordinates":[[[-159.6253,22.1959],[-159.6261,22.1946],[-159.6252,22.1912],[-159.6237,22.1901],[-159.6234,22.1868],[-159.6236,22.1843],[-159.6249,22.1811],[-159.6249,22.1779],[-159.6262,22.1745],[-159.6252,22.1729],[-159.624,22.1726],[-159.6231,22.1713],[-159.6213,22.1707],[-159.6211,22.1695],[-159.6198,22.1681],[-159.6201,22.1667],[-159.6188,22.1648],[-159.619,22.1639],[-159.618,22.1628],[-159.6185,22.162],[-159.6182,22.1605],[-159.6187,22.1593],[-159.6186,22.1568],[-159.6174,22.1549],[-159.6161,22.1552],[-159.6129,22.1581],[-159.6129,22.1592],[-159.6118,22.1617],[-159.6124,22.1628],[-159.6121,22.1636],[-159.6103,22.1649],[-159.6097,22.1659],[-159.6099,22.168],[-159.6095,22.1688],[-159.6101,22.1697],[-159.6112,22.1699],[-159.6116,22.1723],[-159.6109,22.1731],[-159.6078,22.1747],[-159.6074,22.1758],[-159.608,22.1782],[-159.6055,22.1802],[-159.6041,22.1829],[-159.6051,22.186],[-159.6058,22.1866],[-159.6052,22.1894],[-159.6065,22.1933],[-159.6095,22.1962],[-159.6097,22.1975],[-159.6112,22.1996],[-159.6119,22.2016],[-159.6148,22.2004],[-159.6153,22.1994],[-159.6159,22.2],[-159.6175,22.1985],[-159.6203,22.1971],[-159.6232,22.197],[-159.6238,22.1953],[-159.6253,22.1959]]]}},{"type":"Feature","properties":{"id":23,"ahupuaa":"Moloaʻa","moku":"Koʻolau","acres":2743},"geometry":{"type":"Polygon","coordinates":[[[-159.3323,22.2008],[-159.3397,22.1945],[-159.3427,22.1928],[-159.345,22.195],[-159.3487,22.192],[-159.3487,22.189],[-159.3499,22.1894],[-159.3512,22.1865],[-159.3521,22.1858],[-159.3522,22.1844],[-159.3528,22.1847],[-159.3534,22.1833],[-159.357,22.1831],[-159.359,22.184],[-159.3612,22.1812],[-159.3652,22.1799],[-159.3674,22.1785],[-159.3657,22.177],[-159.3732,22.175],[-159.3726,22.1743],[-159.3749,22.1693],[-159.3744,22.1664],[-159.3772,22.1577],[-159.3759,22.1586],[-159.3727,22.1581],[-159.3705,22.159],[-159.3698,22.1599],[-159.3698,22.1617],[-159.3677,22.1643],[-159.365,22.1656],[-159.3631,22.1658],[-159.3624,22.1643],[-159.3611,22.1634],[-159.36,22.1599],[-159.3588,22.1599],[-159.3585,22.1594],[-159.3557,22.1598],[-159.3538,22.1586],[-159.3523,22.1584],[-159.3503,22.1566],[-159.3494,22.1566],[-159.3477,22.1596],[-159.3481,22.1632],[-159.347,22.1647],[-159.3475,22.1665],[-159.3438,22.1732],[-159.3423,22.1745],[-159.3378,22.175],[-159.3331,22.1828],[-159.3174,22.1873],[-159.318,22.1879],[-159.3216,22.1889],[-159.3234,22.1912],[-159.3269,22.1939],[-159.3289,22.1941],[-159.331,22.193],[-159.3327,22.1936],[-159.3339,22.1949],[-159.3336,22.1958],[-159.3309,22.1983],[-159.3313,22.1997],[-159.3323,22.2008]]]}},{"type":"Feature","properties":{"id":25,"ahupuaa":"Waiakalua","moku":"Koʻolau","acres":1651},"geometry":{"type":"Polygon","coordinates":[[[-159.3889,22.1856],[-159.4043,22.1536],[-159.4067,22.1483],[-159.4054,22.1489],[-159.399,22.1483],[-159.3967,22.1487],[-159.395,22.1498],[-159.3947,22.1511],[-159.3932,22.1522],[-159.3925,22.1548],[-159.3894,22.1551],[-159.3878,22.1559],[-159.3871,22.1575],[-159.3851,22.1586],[-159.3848,22.1594],[-159.3833,22.1577],[-159.3806,22.1583],[-159.3772,22.1576],[-159.3744,22.1664],[-159.3749,22.1693],[-159.3728,22.174],[-159.3764,22.1745],[-159.3783,22.1724],[-159.3799,22.1726],[-159.3843,22.1801],[-159.3846,22.1836],[-159.386,22.1858],[-159.3848,22.1882],[-159.3859,22.1889],[-159.3889,22.1856]]]}},{"type":"Feature","properties":{"id":26,"ahupuaa":"Papaʻa","moku":"Koʻolau","acres":1485},"geometry":{"type":"Polygon","coordinates":[[[-159.3174,22.1873],[-159.3331,22.1828],[-159.3378,22.175],[-159.3423,22.1745],[-159.3438,22.1732],[-159.3475,22.1665],[-159.347,22.1647],[-159.3481,22.1632],[-159.3477,22.1596],[-159.3458,22.1608],[-159.3449,22.1624],[-159.3426,22.1639],[-159.3412,22.1642],[-159.3397,22.166],[-159.3344,22.1663],[-159.3303,22.1659],[-159.31,22.169],[-159.3116,22.1717],[-159.314,22.1721],[-159.3138,22.1737],[-159.313,22.1756],[-159.3124,22.176],[-159.3123,22.177],[-159.3111,22.1778],[-159.3122,22.182],[-159.3139,22.1846],[-159.3169,22.1865],[-159.3174,22.1873]]]}},{"type":"Feature","properties":{"id":27,"ahupuaa":"Kalalau","moku":"Nāpali","acres":2712},"geometry":{"type":"Polygon","coordinates":[[[-159.6546,22.1755],[-159.6534,22.175],[-159.653,22.1741],[-159.653,22.1732],[-159.6542,22.1716],[-159.6531,22.1656],[-159.6536,22.164],[-159.6533,22.1614],[-159.6543,22.1606],[-159.655,22.1592],[-159.6539,22.1573],[-159.6524,22.1563],[-159.6507,22.1564],[-159.6478,22.1542],[-159.6463,22.1517],[-159.6454,22.1514],[-159.6449,22.1498],[-159.6436,22.1489],[-159.6433,22.1471],[-159.641,22.1455],[-159.6394,22.1429],[-159.6367,22.1436],[-159.6358,22.1456],[-159.6338,22.1468],[-159.6288,22.1485],[-159.6271,22.1481],[-159.6246,22.1488],[-159.6229,22.1498],[-159.6199,22.1527],[-159.6194,22.1539],[-159.6183,22.1541],[-159.6174,22.1549],[-159.6187,22.1577],[-159.6182,22.1605],[-159.6185,22.162],[-159.618,22.1628],[-159.619,22.1639],[-159.6188,22.1648],[-159.6201,22.1667],[-159.6198,22.1681],[-159.6211,22.1695],[-159.6213,22.1707],[-159.6231,22.1713],[-159.624,22.1726],[-159.6252,22.1729],[-159.6262,22.1745],[-159.6315,22.1765],[-159.6352,22.1766],[-159.6385,22.1781],[-159.6388,22.1808],[-159.6398,22.1833],[-159.6444,22.1804],[-159.6464,22.1803],[-159.6523,22.1783],[-159.6546,22.1755]]]}},{"type":"Feature","properties":{"id":28,"ahupuaa":"Honopū","moku":"Nāpali","acres":2202},"geometry":{"type":"Polygon","coordinates":[[[-159.6886,22.1638],[-159.6894,22.1625],[-159.6885,22.1571],[-159.6813,22.1535],[-159.6768,22.152],[-159.6746,22.1519],[-159.6719,22.1498],[-159.6678,22.1498],[-159.6657,22.1481],[-159.6642,22.1483],[-159.6639,22.1476],[-159.6624,22.1466],[-159.6598,22.1467],[-159.6589,22.1454],[-159.6577,22.1453],[-159.6553,22.143],[-159.6506,22.1418],[-159.6504,22.1412],[-159.6482,22.1423],[-159.6473,22.1422],[-159.6471,22.1409],[-159.6462,22.1397],[-159.6403,22.1419],[-159.6394,22.1429],[-159.641,22.1455],[-159.6433,22.1471],[-159.6436,22.1489],[-159.6449,22.1498],[-159.6454,22.1514],[-159.6463,22.1517],[-159.6478,22.1542],[-159.6507,22.1564],[-159.6524,22.1563],[-159.6539,22.1573],[-159.655,22.1592],[-159.6543,22.1606],[-159.6533,22.1614],[-159.6536,22.164],[-159.6531,22.1659],[-159.6537,22.1676],[-159.6535,22.1691],[-159.6542,22.1706],[-159.6542,22.1716],[-159.653,22.1732],[-159.6536,22.1751],[-159.6546,22.1755],[-159.6574,22.1733],[-159.6625,22.1711],[-159.6652,22.1705],[-159.6655,22.1695],[-159.6668,22.1693],[-159.6664,22.1683],[-159.6683,22.1672],[-159.6699,22.1668],[-159.6706,22.1682],[-159.6717,22.1684],[-159.6721,22.1679],[-159.6717,22.1666],[-159.6729,22.1656],[-159.6742,22.1672],[-159.6754,22.1672],[-159.6766,22.167],[-159.6773,22.1662],[-159.6781,22.1668],[-159.682,22.165],[-159.6827,22.1651],[-159.6833,22.1644],[-159.6845,22.1644],[-159.6856,22.1634],[-159.6879,22.1631],[-159.6886,22.1638]]]}},{"type":"Feature","properties":{"id":29,"ahupuaa":"ʻAliomanu","moku":"Koʻolau","acres":1456},"geometry":{"type":"Polygon","coordinates":[[[-159.31,22.169],[-159.3303,22.1659],[-159.3344,22.1663],[-159.3397,22.166],[-159.3412,22.1642],[-159.3426,22.1639],[-159.3449,22.1624],[-159.3458,22.1608],[-159.3474,22.16],[-159.3494,22.1566],[-159.348,22.1554],[-159.3469,22.1554],[-159.3459,22.1546],[-159.3441,22.1552],[-159.3431,22.1542],[-159.3383,22.1532],[-159.3361,22.1516],[-159.3332,22.1514],[-159.3315,22.1505],[-159.3307,22.1507],[-159.3303,22.1502],[-159.305,22.1579],[-159.3075,22.1601],[-159.3096,22.163],[-159.3086,22.1648],[-159.309,22.1653],[-159.3085,22.1664],[-159.31,22.169]]]}},{"type":"Feature","properties":{"id":30,"ahupuaa":"Anahola","moku":"Koʻolau","acres":6307},"geometry":{"type":"Polygon","coordinates":[[[-159.3494,22.1566],[-159.3503,22.1566],[-159.3523,22.1584],[-159.3538,22.1586],[-159.3557,22.1598],[-159.3585,22.1594],[-159.3588,22.1599],[-159.36,22.1599],[-159.3611,22.1634],[-159.3624,22.1643],[-159.3631,22.1658],[-159.3643,22.1657],[-159.3677,22.1643],[-159.3698,22.1617],[-159.3697,22.1603],[-159.3703,22.1592],[-159.3727,22.1581],[-159.3759,22.1586],[-159.3777,22.1575],[-159.3806,22.1583],[-159.3833,22.1577],[-159.3848,22.1594],[-159.3851,22.1586],[-159.3871,22.1575],[-159.3878,22.1559],[-159.3894,22.1551],[-159.3925,22.1548],[-159.3932,22.1522],[-159.3947,22.1511],[-159.3951,22.1497],[-159.3971,22.1485],[-159.4054,22.1489],[-159.4067,22.1483],[-159.4108,22.1508],[-159.4122,22.1498],[-159.4139,22.1495],[-159.4228,22.1492],[-159.423,22.1477],[-159.4218,22.1464],[-159.421,22.1444],[-159.4192,22.1425],[-159.4181,22.1421],[-159.417,22.1406],[-159.4167,22.1389],[-159.4141,22.1353],[-159.4131,22.1348],[-159.4103,22.1318],[-159.4098,22.1307],[-159.407,22.1325],[-159.4065,22.1351],[-159.4053,22.1359],[-159.4039,22.1378],[-159.4006,22.1381],[-159.3983,22.1372],[-159.3944,22.1372],[-159.3922,22.1391],[-159.391,22.1393],[-159.3896,22.1412],[-159.3863,22.1418],[-159.3855,22.1416],[-159.3849,22.1408],[-159.3834,22.142],[-159.3825,22.1421],[-159.3822,22.1429],[-159.3747,22.1423],[-159.3707,22.1412],[-159.3666,22.1409],[-159.3614,22.1392],[-159.351,22.1388],[-159.3447,22.1339],[-159.338,22.1323],[-159.3219,22.1331],[-159.3122,22.1312],[-159.2938,22.1347],[-159.2943,22.1368],[-159.293,22.1383],[-159.2934,22.1401],[-159.2931,22.1414],[-159.2937,22.1421],[-159.2937,22.143],[-159.2932,22.1431],[-159.2932,22.1434],[-159.2941,22.1439],[-159.2956,22.1477],[-159.296,22.1481],[-159.2971,22.1479],[-159.2981,22.1462],[-159.3021,22.1463],[-159.3038,22.1469],[-159.3056,22.1488],[-159.3058,22.1553],[-159.305,22.1579],[-159.3303,22.1502],[-159.3307,22.1507],[-159.3315,22.1505],[-159.3332,22.1514],[-159.3361,22.1516],[-159.3383,22.1532],[-159.3431,22.1542],[-159.3441,22.1552],[-159.3459,22.1546],[-159.3469,22.1554],[-159.348,22.1554],[-159.3494,22.1566]]]}},{"type":"Feature","properties":{"id":31,"ahupuaa":"Waimea","moku":"Kona","acres":86904},"geometry":{"type":"Polygon","coordinates":[[[-159.5982,22.1598],[-159.6,22.1594],[-159.6006,22.1599],[-159.6016,22.1582],[-159.604,22.1571],[-159.6066,22.1573],[-159.609,22.1562],[-159.6104,22.1566],[-159.6149,22.1566],[-159.6161,22.1552],[-159.617,22.1552],[-159.6183,22.1541],[-159.6194,22.1539],[-159.6199,22.1527],[-159.6229,22.1498],[-159.6246,22.1488],[-159.6271,22.1481],[-159.6288,22.1485],[-159.6338,22.1468],[-159.6358,22.1456],[-159.6367,22.1436],[-159.6391,22.1431],[-159.6401,22.142],[-159.6459,22.1397],[-159.6471,22.1409],[-159.6473,22.1422],[-159.6482,22.1423],[-159.6504,22.1412],[-159.6506,22.1418],[-159.6549,22.1428],[-159.6577,22.1453],[-159.6589,22.1454],[-159.6598,22.1467],[-159.6624,22.1466],[-159.6639,22.1476],[-159.6642,22.1483],[-159.6657,22.1481],[-159.6678,22.1498],[-159.6719,22.1498],[-159.6746,22.1519],[-159.6768,22.152],[-159.6813,22.1535],[-159.6885,22.1571],[-159.6894,22.1625],[-159.6886,22.1638],[-159.6901,22.1631],[-159.6972,22.1624],[-159.6971,22.1615],[-159.7035,22.1576],[-159.705,22.1578],[-159.7055,22.1593],[-159.7062,22.1588],[-159.7067,22.1591],[-159.7076,22.1583],[-159.7074,22.1568],[-159.7096,22.1555],[-159.7131,22.1547],[-159.7186,22.1512],[-159.7225,22.1501],[-159.7269,22.1432],[-159.7285,22.1413],[-159.7306,22.1398],[-159.7323,22.1348],[-159.7329,22.1271],[-159.7345,22.1237],[-159.7374,22.1197],[-159.7385,22.1127],[-159.739,22.1115],[-159.7406,22.1099],[-159.741,22.1085],[-159.7408,22.1068],[-159.7413,22.1056],[-159.7436,22.1036],[-159.7451,22.0976],[-159.7509,22.0929],[-159.7533,22.0899],[-159.7577,22.0866],[-159.7584,22.0854],[-159.7612,22.0838],[-159.7646,22.081],[-159.769,22.076],[-159.7728,22.0725],[-159.7766,22.0698],[-159.7795,22.069],[-159.7834,22.0654],[-159.7841,22.0638],[-159.7841,22.0623],[-159.7829,22.0587],[-159.7848,22.0507],[-159.7838,22.0478],[-159.7858,22.0422],[-159.7865,22.0358],[-159.7879,22.0301],[-159.7881,22.0277],[-159.7874,22.0219],[-159.7849,22.0146],[-159.7831,22.0132],[-159.7814,22.0109],[-159.7777,22.0079],[-159.7752,22.007],[-159.7733,22.0048],[-159.7706,22.0],[-159.769,21.9955],[-159.7642,21.9851],[-159.7597,21.9798],[-159.7564,21.9779],[-159.7466,21.975],[-159.7418,21.9743],[-159.7361,21.9727],[-159.7339,21.9716],[-159.7154,21.9672],[-159.7117,21.9644],[-159.711,21.9631],[-159.7063,21.9606],[-159.6926,21.9595],[-159.6911,21.9589],[-159.6911,21.958],[-159.6897,21.9585],[-159.6816,21.9576],[-159.6712,21.9547],[-159.6706,21.9544],[-159.6707,21.9537],[-159.6704,21.9544],[-159.6666,21.9523],[-159.6658,21.9513],[-159.6621,21.9547],[-159.6601,21.9601],[-159.6553,21.965],[-159.6549,21.9663],[-159.6561,21.97],[-159.6556,21.9722],[-159.653,21.972],[-159.6496,21.9731],[-159.6507,21.9758],[-159.6285,22.018],[-159.6319,22.019],[-159.6322,22.02],[-159.6306,22.0233],[-159.6305,22.0256],[-159.6282,22.027],[-159.6262,22.0312],[-159.6252,22.0321],[-159.6208,22.035],[-159.6176,22.0346],[-159.6167,22.0361],[-159.6186,22.0364],[-159.6058,22.0606],[-159.6047,22.0613],[-159.6039,22.063],[-159.6012,22.0654],[-159.6004,22.0657],[-159.5991,22.0647],[-159.5945,22.0648],[-159.5938,22.0652],[-159.5927,22.0649],[-159.5904,22.067],[-159.5873,22.0668],[-159.5827,22.0675],[-159.5813,22.0673],[-159.5773,22.0709],[-159.573,22.0717],[-159.572,22.0723],[-159.571,22.0741],[-159.5698,22.0742],[-159.5669,22.0756],[-159.5654,22.0777],[-159.5635,22.0778],[-159.5626,22.0762],[-159.5595,22.0744],[-159.5577,22.0743],[-159.5551,22.0753],[-159.5535,22.075],[-159.5522,22.0757],[-159.5506,22.0749],[-159.5489,22.0748],[-159.5471,22.0736],[-159.5453,22.0736],[-159.542,22.0745],[-159.5395,22.0726],[-159.5382,22.0724],[-159.5317,22.0742],[-159.5297,22.0761],[-159.5277,22.0739],[-159.5254,22.0747],[-159.5249,22.0755],[-159.5234,22.0751],[-159.5225,22.076],[-159.5242,22.0773],[-159.5266,22.0783],[-159.532,22.0787],[-159.5331,22.0795],[-159.5338,22.081],[-159.5375,22.0827],[-159.5376,22.0853],[-159.5369,22.086],[-159.536,22.0884],[-159.537,22.0893],[-159.538,22.0916],[-159.5397,22.0925],[-159.54,22.0937],[-159.5423,22.0962],[-159.5435,22.0991],[-159.5435,22.1015],[-159.5447,22.1037],[-159.548,22.105],[-159.5499,22.1081],[-159.5509,22.1087],[-159.552,22.1113],[-159.5557,22.1129],[-159.5559,22.1144],[-159.5554,22.115],[-159.5557,22.1154],[-159.5614,22.1181],[-159.5617,22.1194],[-159.563,22.1205],[-159.5639,22.12],[-159.5636,22.1217],[-159.5643,22.1236],[-159.5679,22.1254],[-159.5683,22.1272],[-159.5698,22.1287],[-159.5715,22.1284],[-159.5732,22.1293],[-159.5736,22.13],[-159.5748,22.1302],[-159.5751,22.1313],[-159.5773,22.1324],[-159.5781,22.1342],[-159.5776,22.1357],[-159.5787,22.1364],[-159.5777,22.1382],[-159.5779,22.1393],[-159.5805,22.1409],[-159.5807,22.1427],[-159.582,22.1442],[-159.5833,22.1446],[-159.5859,22.1442],[-159.5872,22.1451],[-159.5873,22.1458],[-159.5886,22.1466],[-159.5905,22.1492],[-159.5932,22.1542],[-159.5941,22.1548],[-159.5944,22.1575],[-159.596,22.158],[-159.5982,22.1598]]]}},{"type":"Feature","properties":{"id":36,"ahupuaa":"North Olohena","moku":"Puna","acres":951},"geometry":{"type":"Polygon","coordinates":[[[-159.4107,22.0928],[-159.4122,22.0931],[-159.4113,22.0894],[-159.4099,22.0865],[-159.4052,22.0824],[-159.4003,22.0799],[-159.3927,22.0729],[-159.3735,22.0715],[-159.3449,22.0709],[-159.3256,22.0539],[-159.3218,22.0555],[-159.3268,22.0589],[-159.3305,22.0641],[-159.3401,22.0715],[-159.3549,22.0751],[-159.3562,22.074],[-159.3617,22.0735],[-159.3886,22.0764],[-159.3922,22.0784],[-159.3936,22.0802],[-159.3951,22.0809],[-159.3961,22.0824],[-159.4044,22.0848],[-159.4053,22.086],[-159.4067,22.0864],[-159.4091,22.0888],[-159.4107,22.0928]]]}},{"type":"Feature","properties":{"id":32,"ahupuaa":"Kamalomaloʻo","moku":"Puna","acres":2366},"geometry":{"type":"Polygon","coordinates":[[[-159.2938,22.1347],[-159.3122,22.1312],[-159.3219,22.1331],[-159.338,22.1323],[-159.3447,22.1339],[-159.351,22.1388],[-159.3614,22.1392],[-159.3666,22.1409],[-159.3707,22.1412],[-159.3747,22.1423],[-159.3817,22.1429],[-159.3849,22.1408],[-159.3855,22.1416],[-159.3863,22.1418],[-159.3896,22.1412],[-159.391,22.1393],[-159.3922,22.1391],[-159.3945,22.1372],[-159.3936,22.1353],[-159.3928,22.135],[-159.3919,22.1337],[-159.3886,22.133],[-159.3856,22.1331],[-159.385,22.1324],[-159.3831,22.1324],[-159.3793,22.1302],[-159.3693,22.1301],[-159.3554,22.1278],[-159.3522,22.1286],[-159.3469,22.128],[-159.3456,22.1273],[-159.3426,22.1279],[-159.3407,22.1292],[-159.3375,22.1284],[-159.3363,22.1289],[-159.3216,22.1279],[-159.3192,22.126],[-159.3166,22.1265],[-159.3135,22.1253],[-159.3106,22.1253],[-159.3039,22.122],[-159.2962,22.1211],[-159.2958,22.1211],[-159.2958,22.1218],[-159.2952,22.1223],[-159.2936,22.1221],[-159.293,22.1228],[-159.2938,22.1231],[-159.2941,22.124],[-159.2939,22.1246],[-159.293,22.1247],[-159.2928,22.1252],[-159.2925,22.1281],[-159.2932,22.1297],[-159.2945,22.1298],[-159.2944,22.1323],[-159.2949,22.1331],[-159.2945,22.1338],[-159.2933,22.1343],[-159.2938,22.1347]]]}},{"type":"Feature","properties":{"id":33,"ahupuaa":"Keālia","moku":"Puna","acres":6660},"geometry":{"type":"Polygon","coordinates":[[[-159.3945,22.1372],[-159.3983,22.1372],[-159.4006,22.1381],[-159.4017,22.1377],[-159.4031,22.138],[-159.4043,22.1375],[-159.4053,22.1359],[-159.4065,22.1351],[-159.407,22.1325],[-159.4098,22.1307],[-159.4101,22.128],[-159.4095,22.1268],[-159.4098,22.1258],[-159.4114,22.1237],[-159.4132,22.1225],[-159.4096,22.1206],[-159.4084,22.1206],[-159.4066,22.1195],[-159.4032,22.1189],[-159.4017,22.1181],[-159.3994,22.1177],[-159.3986,22.1184],[-159.3979,22.1183],[-159.3971,22.1174],[-159.397,22.1151],[-159.3963,22.1148],[-159.3917,22.1146],[-159.3896,22.1139],[-159.3864,22.1154],[-159.38,22.1149],[-159.3768,22.1133],[-159.3732,22.113],[-159.3699,22.1114],[-159.368,22.112],[-159.3644,22.111],[-159.3623,22.1112],[-159.3614,22.1102],[-159.3594,22.1098],[-159.3587,22.1091],[-159.3558,22.109],[-159.3529,22.1079],[-159.3405,22.1112],[-159.3394,22.1108],[-159.3387,22.1097],[-159.3383,22.1073],[-159.3373,22.1054],[-159.3311,22.1028],[-159.3274,22.1049],[-159.326,22.105],[-159.3242,22.1039],[-159.3225,22.1039],[-159.3207,22.1021],[-159.3197,22.1003],[-159.3149,22.0972],[-159.3128,22.0981],[-159.3107,22.0981],[-159.3102,22.0969],[-159.3113,22.0962],[-159.3116,22.0947],[-159.3105,22.0935],[-159.3075,22.094],[-159.3061,22.0937],[-159.3046,22.0985],[-159.3029,22.0997],[-159.3021,22.0994],[-159.302,22.0985],[-159.3014,22.1007],[-159.2975,22.1036],[-159.2963,22.1059],[-159.2964,22.1068],[-159.2969,22.107],[-159.2958,22.108],[-159.2946,22.1104],[-159.2963,22.1127],[-159.2967,22.1147],[-159.2965,22.1162],[-159.2953,22.1175],[-159.2956,22.1189],[-159.2942,22.1199],[-159.2947,22.1204],[-159.2978,22.1215],[-159.301,22.1214],[-159.3039,22.122],[-159.3106,22.1253],[-159.3135,22.1253],[-159.3166,22.1265],[-159.3192,22.126],[-159.3216,22.1279],[-159.3244,22.1278],[-159.3265,22.1283],[-159.3363,22.1289],[-159.3375,22.1284],[-159.3407,22.1292],[-159.3426,22.1279],[-159.3456,22.1273],[-159.3469,22.128],[-159.3522,22.1286],[-159.3554,22.1278],[-159.3693,22.1301],[-159.3793,22.1302],[-159.3831,22.1324],[-159.385,22.1324],[-159.3856,22.1331],[-159.3886,22.133],[-159.3919,22.1337],[-159.3928,22.135],[-159.3936,22.1353],[-159.3945,22.1372]]]}},{"type":"Feature","properties":{"id":34,"ahupuaa":"Kapaʻa","moku":"Puna","acres":7808},"geometry":{"type":"Polygon","coordinates":[[[-159.4132,22.1225],[-159.4146,22.122],[-159.4157,22.1198],[-159.4172,22.1184],[-159.4172,22.1177],[-159.4165,22.1173],[-159.4144,22.117],[-159.4136,22.1155],[-159.4133,22.1124],[-159.4135,22.1115],[-159.4144,22.1111],[-159.4165,22.1086],[-159.4171,22.1067],[-159.4168,22.1038],[-159.4172,22.1029],[-159.4169,22.1009],[-159.4172,22.1001],[-159.417,22.098],[-159.4159,22.0976],[-159.4155,22.0958],[-159.414,22.0956],[-159.4122,22.0931],[-159.4081,22.0921],[-159.4073,22.0927],[-159.4052,22.0929],[-159.3984,22.0906],[-159.3946,22.0921],[-159.3936,22.0914],[-159.3922,22.0912],[-159.3909,22.0917],[-159.3886,22.0916],[-159.386,22.0927],[-159.3855,22.0921],[-159.3827,22.0927],[-159.378,22.0911],[-159.372,22.092],[-159.3694,22.0929],[-159.3664,22.093],[-159.363,22.089],[-159.3597,22.087],[-159.357,22.0863],[-159.3507,22.0867],[-159.3474,22.0853],[-159.3457,22.0817],[-159.3402,22.0797],[-159.3385,22.0768],[-159.3359,22.0753],[-159.3349,22.0699],[-159.3278,22.0667],[-159.3213,22.0682],[-159.3192,22.0652],[-159.3179,22.0647],[-159.3162,22.0701],[-159.3172,22.0719],[-159.3166,22.0755],[-159.3136,22.0788],[-159.3116,22.0828],[-159.3086,22.0856],[-159.3075,22.0857],[-159.3084,22.0862],[-159.3079,22.0874],[-159.3062,22.0882],[-159.3059,22.0891],[-159.3046,22.0902],[-159.3057,22.0906],[-159.3061,22.0937],[-159.3075,22.094],[-159.3105,22.0935],[-159.3112,22.0939],[-159.3116,22.0947],[-159.3114,22.0959],[-159.3102,22.0969],[-159.3107,22.0981],[-159.3128,22.0981],[-159.3149,22.0972],[-159.3197,22.1003],[-159.3207,22.1021],[-159.3225,22.1039],[-159.3242,22.1039],[-159.326,22.105],[-159.3274,22.1049],[-159.3311,22.1028],[-159.3373,22.1054],[-159.3383,22.1073],[-159.3387,22.1097],[-159.3394,22.1108],[-159.3405,22.1112],[-159.3529,22.1079],[-159.3558,22.109],[-159.3587,22.1091],[-159.3594,22.1098],[-159.3614,22.1102],[-159.3623,22.1112],[-159.3644,22.111],[-159.368,22.112],[-159.3699,22.1114],[-159.3732,22.113],[-159.3768,22.1133],[-159.38,22.1149],[-159.3864,22.1154],[-159.3896,22.1139],[-159.3917,22.1146],[-159.3963,22.1148],[-159.397,22.1151],[-159.3971,22.1174],[-159.3979,22.1183],[-159.3986,22.1184],[-159.3994,22.1177],[-159.4017,22.1181],[-159.4032,22.1189],[-159.4066,22.1195],[-159.4084,22.1206],[-159.4096,22.1206],[-159.4132,22.1225]]]}},{"type":"Feature","properties":{"id":35,"ahupuaa":"Wailua","moku":"Puna","acres":23105},"geometry":{"type":"Polygon","coordinates":[[[-159.4172,22.1177],[-159.4177,22.1174],[-159.4179,22.1155],[-159.4205,22.1134],[-159.4217,22.1132],[-159.4228,22.1115],[-159.4233,22.1114],[-159.4292,22.1123],[-159.432,22.115],[-159.435,22.115],[-159.4377,22.114],[-159.4378,22.1129],[-159.4396,22.1122],[-159.4406,22.1111],[-159.4404,22.109],[-159.4426,22.1082],[-159.4425,22.1059],[-159.4436,22.1051],[-159.4434,22.1041],[-159.445,22.1017],[-159.4467,22.1005],[-159.4494,22.1013],[-159.4497,22.0996],[-159.4512,22.0994],[-159.4526,22.0976],[-159.4529,22.0963],[-159.4536,22.0969],[-159.4552,22.0958],[-159.4557,22.096],[-159.4566,22.0947],[-159.4588,22.0937],[-159.4596,22.091],[-159.462,22.0886],[-159.4633,22.0883],[-159.4651,22.087],[-159.468,22.0866],[-159.4716,22.0824],[-159.4725,22.082],[-159.4732,22.0807],[-159.4806,22.0761],[-159.4812,22.0746],[-159.4835,22.0736],[-159.4873,22.073],[-159.4907,22.0739],[-159.4937,22.0741],[-159.4944,22.0737],[-159.498,22.0708],[-159.4992,22.066],[-159.4974,22.0585],[-159.4167,22.0308],[-159.3547,22.0103],[-159.3367,22.0116],[-159.3375,22.0157],[-159.3384,22.0169],[-159.3382,22.0204],[-159.3387,22.025],[-159.3383,22.0284],[-159.3361,22.0335],[-159.3345,22.0408],[-159.3344,22.0425],[-159.3356,22.0437],[-159.3358,22.0451],[-159.3339,22.05],[-159.332,22.051],[-159.3355,22.0562],[-159.3392,22.0593],[-159.3481,22.0637],[-159.3533,22.0636],[-159.363,22.0621],[-159.3657,22.0624],[-159.3829,22.0679],[-159.3927,22.0729],[-159.4003,22.0799],[-159.4052,22.0824],[-159.4099,22.0865],[-159.4113,22.0894],[-159.4124,22.0937],[-159.414,22.0956],[-159.4155,22.0958],[-159.4159,22.0976],[-159.417,22.098],[-159.4171,22.1067],[-159.4162,22.1092],[-159.4135,22.1115],[-159.4133,22.1124],[-159.4136,22.1155],[-159.4144,22.117],[-159.4172,22.1177]]]}},{"type":"Feature","properties":{"id":37,"ahupuaa":"Waipouli","moku":"Puna","acres":2921},"geometry":{"type":"Polygon","coordinates":[[[-159.3179,22.0647],[-159.3192,22.0652],[-159.3213,22.0682],[-159.3278,22.0667],[-159.3349,22.0699],[-159.3359,22.0753],[-159.3385,22.0768],[-159.3402,22.0797],[-159.3457,22.0817],[-159.3474,22.0853],[-159.3507,22.0867],[-159.357,22.0863],[-159.3597,22.087],[-159.363,22.089],[-159.3664,22.093],[-159.3694,22.0929],[-159.372,22.092],[-159.378,22.0911],[-159.3827,22.0927],[-159.3855,22.0921],[-159.386,22.0927],[-159.3886,22.0916],[-159.3909,22.0917],[-159.3922,22.0912],[-159.3936,22.0914],[-159.3946,22.0921],[-159.3984,22.0906],[-159.4052,22.0929],[-159.4073,22.0927],[-159.4081,22.0921],[-159.4107,22.0928],[-159.4091,22.0888],[-159.4067,22.0864],[-159.4053,22.086],[-159.4044,22.0848],[-159.3961,22.0824],[-159.3951,22.0809],[-159.3936,22.0802],[-159.3922,22.0784],[-159.3886,22.0764],[-159.3617,22.0735],[-159.3562,22.074],[-159.3549,22.0751],[-159.3401,22.0715],[-159.3305,22.0641],[-159.3268,22.0589],[-159.3218,22.0555],[-159.3183,22.061],[-159.3179,22.0647]]]}},{"type":"Feature","properties":{"id":38,"ahupuaa":"Makaweli","moku":"Kona","acres":37857},"geometry":{"type":"Polygon","coordinates":[[[-159.4988,22.0685],[-159.4998,22.0693],[-159.5059,22.0705],[-159.5067,22.0711],[-159.5088,22.071],[-159.5122,22.0733],[-159.5124,22.0745],[-159.5162,22.0763],[-159.5193,22.0738],[-159.5209,22.0741],[-159.5224,22.076],[-159.5234,22.0751],[-159.5249,22.0755],[-159.5254,22.0747],[-159.5277,22.0739],[-159.5297,22.0761],[-159.5317,22.0742],[-159.5382,22.0724],[-159.5395,22.0726],[-159.542,22.0745],[-159.5453,22.0736],[-159.5471,22.0736],[-159.5489,22.0748],[-159.5506,22.0749],[-159.5522,22.0757],[-159.5535,22.075],[-159.5551,22.0753],[-159.5577,22.0743],[-159.5595,22.0744],[-159.5626,22.0762],[-159.5634,22.0777],[-159.564,22.0778],[-159.5654,22.0777],[-159.5669,22.0756],[-159.5698,22.0742],[-159.571,22.0741],[-159.572,22.0723],[-159.573,22.0717],[-159.5773,22.0709],[-159.5813,22.0673],[-159.5827,22.0675],[-159.5873,22.0668],[-159.5904,22.067],[-159.5927,22.0649],[-159.5938,22.0652],[-159.5945,22.0648],[-159.5991,22.0647],[-159.6007,22.0657],[-159.6039,22.063],[-159.6043,22.0618],[-159.6058,22.0606],[-159.6186,22.0364],[-159.6167,22.0361],[-159.6176,22.0346],[-159.6208,22.035],[-159.6252,22.0321],[-159.6262,22.0312],[-159.6282,22.027],[-159.6305,22.0256],[-159.6306,22.0233],[-159.6322,22.02],[-159.6319,22.019],[-159.6285,22.018],[-159.6507,21.9758],[-159.6496,21.9731],[-159.653,21.972],[-159.6556,21.9722],[-159.6561,21.97],[-159.6549,21.9663],[-159.6553,21.965],[-159.6595,21.9609],[-159.6621,21.9547],[-159.6651,21.9522],[-159.6659,21.9509],[-159.6655,21.9491],[-159.6624,21.9467],[-159.6614,21.9453],[-159.6609,21.9428],[-159.6581,21.9424],[-159.6556,21.9414],[-159.6525,21.9413],[-159.6493,21.9387],[-159.6501,21.9348],[-159.6488,21.9316],[-159.646,21.9309],[-159.6452,21.9297],[-159.6449,21.9278],[-159.6432,21.9264],[-159.6427,21.925],[-159.6408,21.9245],[-159.64,21.9229],[-159.6381,21.922],[-159.6376,21.9203],[-159.6379,21.919],[-159.636,21.9168],[-159.6363,21.9163],[-159.636,21.9156],[-159.6344,21.9136],[-159.6335,21.913],[-159.6317,21.9132],[-159.6314,21.9117],[-159.6287,21.9111],[-159.6286,21.9091],[-159.6282,21.9087],[-159.6269,21.9094],[-159.6261,21.9092],[-159.6264,21.9077],[-159.6239,21.9077],[-159.6233,21.9066],[-159.6226,21.9071],[-159.6209,21.9066],[-159.6209,21.9056],[-159.6197,21.9053],[-159.6192,21.904],[-159.6171,21.9023],[-159.5666,21.9453],[-159.565,21.9491],[-159.5611,21.952],[-159.5607,21.9543],[-159.5609,21.9554],[-159.5631,21.9581],[-159.5628,21.9654],[-159.5612,21.97],[-159.5613,21.9708],[-159.5618,21.9716],[-159.5633,21.9724],[-159.5646,21.9749],[-159.5641,21.9784],[-159.565,21.9826],[-159.5647,21.9857],[-159.567,21.9883],[-159.5672,21.9919],[-159.5679,21.9938],[-159.5675,21.9946],[-159.5676,21.997],[-159.5685,21.9993],[-159.5677,22.0],[-159.5671,22.0028],[-159.5643,22.0067],[-159.563,22.0072],[-159.5599,22.0099],[-159.5587,22.0121],[-159.5571,22.0128],[-159.5562,22.0155],[-159.5545,22.0168],[-159.5543,22.0179],[-159.5535,22.0187],[-159.552,22.0193],[-159.5509,22.0192],[-159.5498,22.0199],[-159.5463,22.0228],[-159.545,22.0247],[-159.5426,22.0258],[-159.5393,22.0264],[-159.5364,22.0284],[-159.5345,22.0283],[-159.5337,22.0296],[-159.5312,22.0308],[-159.5304,22.032],[-159.5306,22.0332],[-159.53,22.0359],[-159.5271,22.0366],[-159.5236,22.0387],[-159.5212,22.042],[-159.5216,22.0436],[-159.521,22.0447],[-159.5164,22.0485],[-159.5158,22.0501],[-159.5123,22.0508],[-159.5092,22.0525],[-159.5065,22.052],[-159.5045,22.0531],[-159.5033,22.0532],[-159.4995,22.056],[-159.4982,22.056],[-159.4967,22.0567],[-159.4965,22.0577],[-159.4974,22.0585],[-159.4972,22.0589],[-159.4989,22.0637],[-159.4987,22.0646],[-159.4992,22.066],[-159.4988,22.0685]]]}},{"type":"Feature","properties":{"id":39,"ahupuaa":"South Olohena","moku":"Puna","acres":1201},"geometry":{"type":"Polygon","coordinates":[[[-159.3256,22.0539],[-159.3449,22.0709],[-159.3735,22.0715],[-159.3927,22.0729],[-159.3829,22.0679],[-159.3657,22.0624],[-159.363,22.0621],[-159.3533,22.0636],[-159.3481,22.0637],[-159.3386,22.0589],[-159.3355,22.0562],[-159.332,22.051],[-159.3306,22.0514],[-159.3298,22.0509],[-159.3278,22.0519],[-159.3256,22.0539]]]}},{"type":"Feature","properties":{"id":40,"ahupuaa":"Hanamāʻulu","moku":"Puna","acres":18254},"geometry":{"type":"Polygon","coordinates":[[[-159.5033,22.0532],[-159.5005,22.0494],[-159.4995,22.0472],[-159.4976,22.0457],[-159.4982,22.0442],[-159.5002,22.0421],[-159.5012,22.0369],[-159.5021,22.0358],[-159.5021,22.0347],[-159.5012,22.0338],[-159.501,22.0323],[-159.4997,22.0305],[-159.4999,22.0277],[-159.501,22.0265],[-159.5014,22.0248],[-159.5037,22.0211],[-159.504,22.0197],[-159.505,22.0191],[-159.5057,22.0176],[-159.5056,22.0166],[-159.5019,22.0115],[-159.5021,22.0103],[-159.5012,22.0087],[-159.5019,22.0039],[-159.5011,22.0025],[-159.3816,21.9923],[-159.3519,21.978],[-159.3331,21.9781],[-159.3335,21.9792],[-159.3331,21.9824],[-159.3338,21.9845],[-159.3337,21.9862],[-159.3328,21.9878],[-159.3333,21.9891],[-159.3309,21.9896],[-159.3299,21.9909],[-159.3299,21.9917],[-159.331,21.9924],[-159.3313,21.9934],[-159.3318,21.9933],[-159.3324,21.994],[-159.3319,21.9929],[-159.3331,21.9922],[-159.3322,21.9926],[-159.3333,21.9913],[-159.337,21.9909],[-159.3383,21.9915],[-159.3397,21.9908],[-159.3406,21.9917],[-159.3412,21.994],[-159.3409,21.9949],[-159.34,21.9953],[-159.337,21.9953],[-159.3362,21.9948],[-159.3343,21.9972],[-159.3328,21.9978],[-159.3326,21.9984],[-159.3334,22.0023],[-159.3354,22.0041],[-159.3359,22.0088],[-159.3367,22.0116],[-159.3547,22.0103],[-159.4167,22.0308],[-159.4974,22.0585],[-159.4965,22.0577],[-159.4967,22.0567],[-159.4982,22.056],[-159.4995,22.056],[-159.5033,22.0532]]]}},{"type":"Feature","properties":{"id":41,"ahupuaa":"Hanapēpē","moku":"Kona","acres":16570},"geometry":{"type":"Polygon","coordinates":[[[-159.5033,22.0532],[-159.5045,22.0531],[-159.5065,22.052],[-159.5092,22.0525],[-159.5123,22.0508],[-159.5158,22.0501],[-159.5164,22.0485],[-159.521,22.0447],[-159.5216,22.0436],[-159.5212,22.042],[-159.5236,22.0387],[-159.5271,22.0366],[-159.53,22.0359],[-159.5306,22.0332],[-159.5304,22.032],[-159.5312,22.0308],[-159.5337,22.0296],[-159.5345,22.0283],[-159.5364,22.0284],[-159.5393,22.0264],[-159.5426,22.0258],[-159.545,22.0247],[-159.5463,22.0228],[-159.5498,22.0199],[-159.5509,22.0192],[-159.552,22.0193],[-159.5535,22.0187],[-159.5543,22.0179],[-159.5545,22.0168],[-159.5562,22.0155],[-159.5571,22.0128],[-159.5587,22.0121],[-159.5596,22.0102],[-159.563,22.0072],[-159.5643,22.0067],[-159.5663,22.0041],[-159.5673,22.0024],[-159.5677,22.0],[-159.5685,21.9992],[-159.5676,21.997],[-159.5675,21.9946],[-159.5679,21.9938],[-159.5672,21.9919],[-159.567,21.9883],[-159.5647,21.9857],[-159.565,21.9826],[-159.5641,21.9784],[-159.5646,21.9749],[-159.5633,21.9724],[-159.5618,21.9716],[-159.5612,21.9702],[-159.5628,21.9654],[-159.5631,21.9581],[-159.5609,21.9554],[-159.5609,21.9524],[-159.565,21.9491],[-159.5666,21.9453],[-159.6171,21.9023],[-159.6094,21.9006],[-159.6086,21.8996],[-159.6086,21.9],[-159.6082,21.8999],[-159.6074,21.8985],[-159.6081,21.8984],[-159.6076,21.8966],[-159.6077,21.8952],[-159.6083,21.8947],[-159.6053,21.8933],[-159.6047,21.8922],[-159.6024,21.8923],[-159.6008,21.8932],[-159.6,21.893],[-159.5986,21.8946],[-159.5975,21.895],[-159.597,21.896],[-159.5992,21.899],[-159.5976,21.8998],[-159.5974,21.9025],[-159.5952,21.9035],[-159.5914,21.904],[-159.5899,21.9031],[-159.5889,21.9041],[-159.5903,21.905],[-159.5908,21.9073],[-159.5904,21.9088],[-159.5891,21.9107],[-159.5873,21.9117],[-159.5838,21.9119],[-159.5829,21.9146],[-159.5801,21.9155],[-159.5803,21.9164],[-159.5775,21.9172],[-159.5765,21.9169],[-159.5735,21.9179],[-159.5719,21.9193],[-159.5678,21.9212],[-159.5659,21.9208],[-159.5655,21.9198],[-159.5648,21.9196],[-159.5598,21.921],[-159.5582,21.9222],[-159.556,21.9215],[-159.5502,21.9219],[-159.5482,21.923],[-159.5469,21.9227],[-159.5501,21.9214],[-159.5508,21.9197],[-159.5483,21.9219],[-159.5462,21.9224],[-159.545,21.9234],[-159.5455,21.9241],[-159.5453,21.9271],[-159.5424,21.9322],[-159.5418,21.9401],[-159.5402,21.9416],[-159.5351,21.9541],[-159.5345,21.9541],[-159.5287,21.9578],[-159.5329,21.9593],[-159.5317,21.9609],[-159.5319,21.9624],[-159.5309,21.9646],[-159.5278,21.9677],[-159.5273,21.9693],[-159.5256,21.9706],[-159.5251,21.9723],[-159.5211,21.9741],[-159.5207,21.9756],[-159.5214,21.9762],[-159.5214,21.9769],[-159.5201,21.9788],[-159.5171,21.9809],[-159.5156,21.9826],[-159.5145,21.9828],[-159.5114,21.985],[-159.5103,21.9847],[-159.509,21.986],[-159.5075,21.9867],[-159.5069,21.9887],[-159.505,21.9902],[-159.503,21.9901],[-159.5016,21.9914],[-159.5002,21.9919],[-159.4994,21.9936],[-159.5003,21.9958],[-159.5006,22.0011],[-159.5019,22.0039],[-159.5012,22.0087],[-159.5021,22.0103],[-159.5019,22.0115],[-159.5056,22.0166],[-159.5057,22.0176],[-159.505,22.0191],[-159.504,22.0197],[-159.5037,22.0211],[-159.5014,22.0248],[-159.501,22.0265],[-159.4999,22.0277],[-159.4997,22.0305],[-159.501,22.0323],[-159.5012,22.0338],[-159.5021,22.0347],[-159.5021,22.0358],[-159.5012,22.0369],[-159.5002,22.0421],[-159.4982,22.0442],[-159.4976,22.0457],[-159.4995,22.0472],[-159.5005,22.0494],[-159.5033,22.0532]]]}},{"type":"Feature","properties":{"id":42,"ahupuaa":"Haʻikū","moku":"Puna","acres":12391},"geometry":{"type":"Polygon","coordinates":[[[-159.4216,21.9957],[-159.44,21.9972],[-159.5011,22.0025],[-159.5002,21.9988],[-159.5003,21.9958],[-159.4996,21.9937],[-159.4976,21.9926],[-159.4963,21.9925],[-159.4962,21.9909],[-159.4947,21.9863],[-159.4954,21.9832],[-159.4952,21.9821],[-159.4934,21.9778],[-159.4678,21.9603],[-159.4652,21.9612],[-159.4613,21.9616],[-159.4612,21.9627],[-159.4606,21.9622],[-159.4596,21.9626],[-159.4596,21.9632],[-159.4584,21.964],[-159.4584,21.9647],[-159.4572,21.9647],[-159.4572,21.9657],[-159.4559,21.9663],[-159.456,21.9653],[-159.4552,21.9661],[-159.4532,21.9532],[-159.4541,21.95],[-159.4591,21.9454],[-159.4587,21.9425],[-159.4591,21.9395],[-159.4578,21.9386],[-159.4573,21.9373],[-159.4542,21.9354],[-159.4531,21.934],[-159.4507,21.933],[-159.449,21.9335],[-159.4438,21.9331],[-159.4402,21.9334],[-159.4383,21.9324],[-159.4246,21.9517],[-159.4247,21.9532],[-159.4241,21.9552],[-159.4235,21.9563],[-159.4226,21.9567],[-159.421,21.9564],[-159.4208,21.9539],[-159.4196,21.9505],[-159.4163,21.9507],[-159.4146,21.9486],[-159.4132,21.9492],[-159.4122,21.951],[-159.411,21.9508],[-159.4084,21.9493],[-159.4076,21.9499],[-159.4064,21.9521],[-159.4053,21.952],[-159.4043,21.9513],[-159.4025,21.9487],[-159.4012,21.9451],[-159.3981,21.9432],[-159.3892,21.9435],[-159.3849,21.9449],[-159.3789,21.9453],[-159.378,21.9459],[-159.3843,21.9598],[-159.4095,21.9776],[-159.4216,21.9957]]]}},{"type":"Feature","properties":{"id":44,"ahupuaa":"Kalapakī","moku":"Puna","acres":2997},"geometry":{"type":"Polygon","coordinates":[[[-159.4216,21.9957],[-159.4079,21.9917],[-159.3747,21.9777],[-159.3681,21.9732],[-159.3605,21.9638],[-159.3581,21.9638],[-159.3571,21.9627],[-159.3537,21.9626],[-159.3537,21.9613],[-159.3523,21.9605],[-159.3522,21.9597],[-159.3505,21.9603],[-159.3484,21.9601],[-159.3479,21.9563],[-159.3477,21.9567],[-159.3474,21.9563],[-159.3473,21.9568],[-159.3466,21.9564],[-159.3448,21.9567],[-159.3421,21.9585],[-159.3397,21.9585],[-159.3376,21.9575],[-159.3364,21.955],[-159.3356,21.9545],[-159.3349,21.9561],[-159.3319,21.9578],[-159.3299,21.9612],[-159.3304,21.963],[-159.33,21.9659],[-159.3309,21.9687],[-159.3305,21.9707],[-159.3331,21.9781],[-159.3519,21.978],[-159.3816,21.9923],[-159.4216,21.9957]]]}},{"type":"Feature","properties":{"id":45,"ahupuaa":"Wahiawa","moku":"Kona","acres":5829},"geometry":{"type":"Polygon","coordinates":[[[-159.4994,21.9936],[-159.5003,21.9918],[-159.5016,21.9914],[-159.503,21.9901],[-159.505,21.9902],[-159.5069,21.9887],[-159.5075,21.9867],[-159.509,21.986],[-159.5103,21.9847],[-159.5114,21.985],[-159.5145,21.9828],[-159.5156,21.9826],[-159.5171,21.9809],[-159.5201,21.9788],[-159.5214,21.9769],[-159.5214,21.9762],[-159.5207,21.9756],[-159.5211,21.9741],[-159.5251,21.9723],[-159.5256,21.9706],[-159.5273,21.9693],[-159.5278,21.9677],[-159.5309,21.9646],[-159.5319,21.9624],[-159.5317,21.9609],[-159.5329,21.9593],[-159.5287,21.9578],[-159.5345,21.9541],[-159.5351,21.9541],[-159.5402,21.9416],[-159.5418,21.9401],[-159.5424,21.9322],[-159.5453,21.9271],[-159.5455,21.9241],[-159.545,21.9234],[-159.5462,21.9224],[-159.5483,21.9219],[-159.5508,21.9197],[-159.5501,21.9214],[-159.5469,21.9227],[-159.5482,21.923],[-159.5498,21.922],[-159.5512,21.9218],[-159.5604,21.916],[-159.5732,21.9043],[-159.5792,21.8957],[-159.5788,21.8958],[-159.5786,21.8953],[-159.5776,21.8956],[-159.5752,21.8975],[-159.5742,21.8966],[-159.5751,21.8952],[-159.5759,21.8949],[-159.5759,21.8936],[-159.5751,21.8928],[-159.5738,21.8933],[-159.5734,21.8928],[-159.5698,21.8943],[-159.5669,21.8924],[-159.5618,21.8907],[-159.5614,21.8897],[-159.5604,21.8901],[-159.559,21.8893],[-159.5555,21.8891],[-159.5553,21.8886],[-159.5546,21.8891],[-159.5518,21.8873],[-159.5493,21.8876],[-159.548,21.8883],[-159.5464,21.888],[-159.5462,21.8911],[-159.5426,21.9022],[-159.5416,21.9067],[-159.5391,21.9113],[-159.537,21.9138],[-159.5304,21.9259],[-159.5274,21.9337],[-159.5255,21.9408],[-159.5232,21.9537],[-159.5198,21.9556],[-159.4934,21.9778],[-159.4952,21.9821],[-159.4954,21.9832],[-159.4947,21.9863],[-159.4962,21.9909],[-159.4963,21.9925],[-159.4976,21.9926],[-159.4994,21.9936]]]}},{"type":"Feature","properties":{"id":52,"ahupuaa":"Pāʻā","moku":"Kona","acres":3880},"geometry":{"type":"Polygon","coordinates":[[[-159.4351,21.9312],[-159.4393,21.9332],[-159.4413,21.9335],[-159.4425,21.9331],[-159.449,21.9335],[-159.4507,21.933],[-159.4545,21.925],[-159.4414,21.8705],[-159.4412,21.8723],[-159.4395,21.8739],[-159.4366,21.8746],[-159.4358,21.8743],[-159.4357,21.8738],[-159.435,21.8738],[-159.4336,21.8744],[-159.4304,21.8778],[-159.4291,21.8804],[-159.4271,21.8813],[-159.4215,21.8814],[-159.4189,21.8822],[-159.418,21.8851],[-159.4184,21.8868],[-159.4175,21.8878],[-159.4193,21.889],[-159.4212,21.889],[-159.4307,21.8999],[-159.4255,21.9089],[-159.4241,21.9196],[-159.4245,21.9202],[-159.4236,21.9221],[-159.4237,21.9283],[-159.4257,21.9291],[-159.4268,21.9304],[-159.4277,21.9307],[-159.4351,21.9312]]]}},{"type":"Feature","properties":{"id":46,"ahupuaa":"Kalāheo","moku":"Kona","acres":5365},"geometry":{"type":"Polygon","coordinates":[[[-159.4931,21.9559],[-159.4941,21.965],[-159.4952,21.9681],[-159.4961,21.9692],[-159.4957,21.9743],[-159.4934,21.9778],[-159.5198,21.9556],[-159.5232,21.9537],[-159.5255,21.9408],[-159.5274,21.9337],[-159.5304,21.9259],[-159.537,21.9138],[-159.5391,21.9113],[-159.5416,21.9067],[-159.5426,21.9022],[-159.5462,21.8911],[-159.5464,21.888],[-159.5458,21.8886],[-159.5444,21.888],[-159.5435,21.8883],[-159.5422,21.887],[-159.5417,21.8874],[-159.5377,21.8875],[-159.5369,21.8864],[-159.5344,21.8871],[-159.5317,21.8869],[-159.5311,21.8865],[-159.5312,21.8858],[-159.5301,21.886],[-159.5292,21.8856],[-159.5289,21.8845],[-159.5292,21.8845],[-159.5281,21.8839],[-159.5282,21.8832],[-159.5273,21.8836],[-159.5265,21.8827],[-159.5257,21.8847],[-159.5192,21.8871],[-159.518,21.8867],[-159.5161,21.8991],[-159.5132,21.9034],[-159.5114,21.9087],[-159.5102,21.9105],[-159.509,21.9105],[-159.5085,21.9119],[-159.5086,21.9162],[-159.5078,21.9178],[-159.5113,21.925],[-159.5093,21.9299],[-159.5103,21.9392],[-159.5071,21.9494],[-159.4931,21.9559]]]}},{"type":"Feature","properties":{"id":47,"ahupuaa":"Kōloa","moku":"Kona","acres":8745},"geometry":{"type":"Polygon","coordinates":[[[-159.4931,21.9559],[-159.4909,21.9545],[-159.4892,21.9523],[-159.4919,21.9491],[-159.4922,21.948],[-159.4918,21.9449],[-159.4945,21.9411],[-159.4964,21.9393],[-159.4977,21.9358],[-159.4931,21.9289],[-159.4939,21.9266],[-159.4919,21.917],[-159.4938,21.912],[-159.4941,21.9067],[-159.4888,21.8866],[-159.4884,21.8856],[-159.4879,21.8858],[-159.4872,21.8849],[-159.4875,21.8843],[-159.4888,21.8841],[-159.4879,21.884],[-159.4883,21.8834],[-159.4847,21.8835],[-159.4839,21.8828],[-159.4834,21.8829],[-159.4825,21.881],[-159.482,21.8819],[-159.4802,21.8817],[-159.4792,21.8823],[-159.4784,21.8817],[-159.476,21.8816],[-159.4752,21.8805],[-159.4735,21.881],[-159.4725,21.8799],[-159.4713,21.8795],[-159.471,21.8782],[-159.4691,21.8783],[-159.4691,21.8799],[-159.4675,21.8773],[-159.4667,21.8776],[-159.4653,21.8765],[-159.463,21.8762],[-159.4627,21.8756],[-159.4619,21.8754],[-159.4597,21.8756],[-159.4573,21.8738],[-159.4556,21.8735],[-159.4553,21.8729],[-159.4556,21.8723],[-159.4551,21.8721],[-159.4544,21.8731],[-159.4535,21.8724],[-159.4533,21.8734],[-159.4524,21.8736],[-159.4519,21.8754],[-159.4519,21.882],[-159.4529,21.888],[-159.4568,21.8989],[-159.4585,21.9056],[-159.4593,21.9048],[-159.4601,21.9053],[-159.4609,21.9033],[-159.4623,21.9059],[-159.4639,21.9058],[-159.465,21.907],[-159.4623,21.9088],[-159.4623,21.9093],[-159.4615,21.9092],[-159.4638,21.9131],[-159.4646,21.9166],[-159.4629,21.9185],[-159.4622,21.9217],[-159.4587,21.9404],[-159.4591,21.9454],[-159.4541,21.95],[-159.4532,21.9532],[-159.4552,21.9661],[-159.456,21.9653],[-159.4559,21.9663],[-159.4572,21.9657],[-159.4572,21.9647],[-159.4584,21.9647],[-159.4584,21.964],[-159.4596,21.9632],[-159.4596,21.9626],[-159.4606,21.9622],[-159.4612,21.9627],[-159.4613,21.9616],[-159.4652,21.9612],[-159.4678,21.9603],[-159.4934,21.9778],[-159.4957,21.9743],[-159.4961,21.9692],[-159.4952,21.9681],[-159.4941,21.965],[-159.4931,21.9559]]]}},{"type":"Feature","properties":{"id":48,"ahupuaa":"Kīpū","moku":"Puna","acres":2970},"geometry":{"type":"Polygon","coordinates":[[[-159.3789,21.9453],[-159.3849,21.9449],[-159.3892,21.9435],[-159.3981,21.9432],[-159.4012,21.9451],[-159.4025,21.9487],[-159.4043,21.9513],[-159.4053,21.952],[-159.4064,21.9521],[-159.4076,21.9499],[-159.4084,21.9493],[-159.411,21.9508],[-159.4122,21.951],[-159.4132,21.9492],[-159.4146,21.9486],[-159.4163,21.9507],[-159.4196,21.9505],[-159.4208,21.9539],[-159.421,21.9564],[-159.4226,21.9567],[-159.4235,21.9563],[-159.4241,21.9552],[-159.4247,21.9532],[-159.4246,21.9517],[-159.4383,21.9324],[-159.4351,21.9312],[-159.4277,21.9307],[-159.4237,21.9282],[-159.4182,21.929],[-159.4165,21.9282],[-159.41,21.9283],[-159.4035,21.9266],[-159.4013,21.9247],[-159.3983,21.9263],[-159.3957,21.9269],[-159.3952,21.9274],[-159.3936,21.9274],[-159.3916,21.9284],[-159.3885,21.9276],[-159.3849,21.9285],[-159.3841,21.9294],[-159.3806,21.9291],[-159.3799,21.93],[-159.3781,21.9306],[-159.3808,21.944],[-159.3789,21.9453]]]}},{"type":"Feature","properties":{"id":49,"ahupuaa":"Lāwai","moku":"Kona","acres":3447},"geometry":{"type":"Polygon","coordinates":[[[-159.4976,21.9359],[-159.4964,21.9393],[-159.4945,21.9411],[-159.4918,21.9449],[-159.4922,21.948],[-159.4919,21.9491],[-159.4892,21.9523],[-159.4909,21.9545],[-159.4931,21.9559],[-159.5071,21.9494],[-159.5103,21.9392],[-159.5093,21.9299],[-159.5113,21.925],[-159.5078,21.9178],[-159.5086,21.9162],[-159.5085,21.9119],[-159.509,21.9105],[-159.5102,21.9105],[-159.5114,21.9087],[-159.5132,21.9034],[-159.5161,21.8991],[-159.518,21.8868],[-159.5179,21.8866],[-159.5173,21.887],[-159.5164,21.8868],[-159.5165,21.8874],[-159.5159,21.8877],[-159.5122,21.8881],[-159.5093,21.8864],[-159.5083,21.8869],[-159.5057,21.8865],[-159.5053,21.8869],[-159.5048,21.8867],[-159.5035,21.8883],[-159.5017,21.8878],[-159.5019,21.8861],[-159.5015,21.8848],[-159.5004,21.8848],[-159.5,21.8841],[-159.4987,21.8848],[-159.4981,21.8845],[-159.4973,21.8854],[-159.4964,21.8847],[-159.4947,21.8851],[-159.4942,21.8845],[-159.4928,21.8844],[-159.4913,21.8859],[-159.4891,21.8853],[-159.4884,21.8856],[-159.4903,21.8914],[-159.4941,21.9067],[-159.4938,21.912],[-159.4919,21.917],[-159.4939,21.9266],[-159.4931,21.9289],[-159.4976,21.9359]]]}},{"type":"Feature","properties":{"id":50,"ahupuaa":"Niumalu","moku":"Puna","acres":1434},"geometry":{"type":"Polygon","coordinates":[[[-159.3781,21.9306],[-159.3745,21.9273],[-159.3723,21.9232],[-159.371,21.9251],[-159.3683,21.9252],[-159.3672,21.9282],[-159.3653,21.9301],[-159.361,21.9318],[-159.3567,21.9311],[-159.3548,21.9317],[-159.3544,21.9329],[-159.3552,21.9342],[-159.3543,21.936],[-159.3524,21.9366],[-159.3482,21.9362],[-159.3468,21.9369],[-159.3463,21.9378],[-159.3469,21.9387],[-159.3501,21.9406],[-159.3505,21.9416],[-159.3496,21.9437],[-159.3477,21.9443],[-159.3489,21.9453],[-159.3483,21.9454],[-159.3477,21.9468],[-159.3481,21.9478],[-159.3506,21.9489],[-159.3485,21.9535],[-159.3515,21.9482],[-159.3582,21.9473],[-159.3604,21.9477],[-159.3621,21.9464],[-159.3647,21.9455],[-159.3726,21.9469],[-159.3742,21.9463],[-159.3752,21.9453],[-159.3789,21.9453],[-159.3808,21.944],[-159.3781,21.9306]]]}},{"type":"Feature","properties":{"id":51,"ahupuaa":"Weliweli","moku":"Kona","acres":1718},"geometry":{"type":"Polygon","coordinates":[[[-159.4507,21.933],[-159.4533,21.9341],[-159.4542,21.9354],[-159.4573,21.9373],[-159.4578,21.9386],[-159.459,21.9393],[-159.4629,21.9185],[-159.4646,21.9166],[-159.4638,21.9131],[-159.4615,21.9092],[-159.4623,21.9093],[-159.4623,21.9088],[-159.465,21.907],[-159.4639,21.9058],[-159.4623,21.9059],[-159.4609,21.9033],[-159.4601,21.9053],[-159.4593,21.9048],[-159.4585,21.9056],[-159.4568,21.8989],[-159.4529,21.888],[-159.4519,21.882],[-159.4519,21.8754],[-159.4524,21.8736],[-159.4533,21.8734],[-159.4535,21.8724],[-159.4514,21.873],[-159.4487,21.8703],[-159.4471,21.8704],[-159.4462,21.869],[-159.4443,21.8683],[-159.4424,21.8692],[-159.4425,21.8698],[-159.4417,21.8699],[-159.4414,21.8705],[-159.4545,21.925],[-159.4507,21.933]]]}},{"type":"Feature","properties":{"id":53,"ahupuaa":"Kīpū Kai","moku":"Puna","acres":1114},"geometry":{"type":"Polygon","coordinates":[[[-159.3781,21.9306],[-159.3799,21.93],[-159.3806,21.9291],[-159.3841,21.9294],[-159.3849,21.9285],[-159.3885,21.9276],[-159.3916,21.9284],[-159.3936,21.9274],[-159.3952,21.9274],[-159.3957,21.9269],[-159.3983,21.9263],[-159.4013,21.9247],[-159.4008,21.9238],[-159.4007,21.921],[-159.3987,21.9192],[-159.4004,21.9107],[-159.3998,21.9081],[-159.3986,21.9067],[-159.3965,21.9068],[-159.3958,21.9061],[-159.3919,21.9049],[-159.3912,21.9041],[-159.3876,21.903],[-159.3873,21.9033],[-159.3877,21.9046],[-159.3895,21.9059],[-159.3903,21.9072],[-159.3901,21.9091],[-159.3887,21.9123],[-159.3871,21.9132],[-159.3862,21.9132],[-159.3864,21.9124],[-159.3855,21.9124],[-159.384,21.9138],[-159.385,21.9143],[-159.385,21.9151],[-159.3827,21.9163],[-159.3821,21.9173],[-159.3822,21.918],[-159.3829,21.9177],[-159.3835,21.9185],[-159.3834,21.9193],[-159.3827,21.9198],[-159.3809,21.9201],[-159.3793,21.9216],[-159.3756,21.9231],[-159.3749,21.9228],[-159.3739,21.9235],[-159.3723,21.9232],[-159.3745,21.9273],[-159.3781,21.9306]]]}},{"type":"Feature","properties":{"id":54,"ahupuaa":"Māhāʻulepū","moku":"Kona","acres":2724},"geometry":{"type":"Polygon","coordinates":[[[-159.4008,21.9238],[-159.4035,21.9266],[-159.41,21.9283],[-159.4165,21.9282],[-159.4182,21.929],[-159.4237,21.9282],[-159.4236,21.9221],[-159.4245,21.9202],[-159.4241,21.9196],[-159.4255,21.9089],[-159.4307,21.8999],[-159.4212,21.889],[-159.4193,21.889],[-159.4175,21.8878],[-159.4142,21.8891],[-159.4119,21.8891],[-159.4103,21.8898],[-159.4101,21.8907],[-159.4108,21.8923],[-159.4091,21.8931],[-159.4072,21.8924],[-159.4063,21.8926],[-159.4061,21.8932],[-159.4057,21.8929],[-159.4043,21.8935],[-159.4055,21.8949],[-159.4035,21.8973],[-159.4035,21.8991],[-159.4023,21.8993],[-159.4003,21.901],[-159.3994,21.9008],[-159.3992,21.9014],[-159.3977,21.9023],[-159.3975,21.903],[-159.3937,21.9026],[-159.3915,21.9015],[-159.3905,21.9015],[-159.3902,21.9024],[-159.3888,21.9024],[-159.3876,21.903],[-159.3912,21.9041],[-159.3919,21.9049],[-159.3958,21.9061],[-159.3965,21.9068],[-159.3986,21.9067],[-159.3995,21.9076],[-159.4004,21.911],[-159.3987,21.9192],[-159.4007,21.921],[-159.4008,21.9238]]]}},{"type":"Feature","properties":{"id":55,"ahupuaa":"ʻEleʻele","moku":"Kona","acres":1189},"geometry":{"type":"Polygon","coordinates":[[[-159.5504,21.9219],[-159.556,21.9215],[-159.5582,21.9222],[-159.5598,21.921],[-159.5648,21.9196],[-159.5655,21.9198],[-159.5659,21.9208],[-159.5678,21.9212],[-159.5719,21.9193],[-159.5735,21.9179],[-159.5765,21.9169],[-159.5775,21.9172],[-159.5803,21.9164],[-159.5801,21.9155],[-159.5829,21.9146],[-159.5838,21.9119],[-159.588,21.9115],[-159.5904,21.9088],[-159.5908,21.9063],[-159.5903,21.905],[-159.5889,21.9041],[-159.5899,21.9032],[-159.5895,21.9023],[-159.5907,21.9016],[-159.5901,21.9007],[-159.5892,21.901],[-159.59,21.9008],[-159.5905,21.9016],[-159.5893,21.9022],[-159.5881,21.9005],[-159.5899,21.8998],[-159.5898,21.8993],[-159.5881,21.8999],[-159.5874,21.8997],[-159.5874,21.8993],[-159.591,21.8969],[-159.5878,21.8988],[-159.5872,21.8984],[-159.5862,21.8988],[-159.5855,21.8982],[-159.5839,21.8979],[-159.5838,21.8964],[-159.5817,21.8959],[-159.5798,21.8963],[-159.5792,21.8957],[-159.5732,21.9043],[-159.5604,21.916],[-159.5512,21.9218],[-159.5504,21.9219]]]}},{"type":"Feature","properties":{"id":56,"ahupuaa":"Niumalu","moku":"Puna","acres":932},"geometry":{"type":"Polygon","coordinates":[[[-159.3609,21.9513],[-159.362,21.952],[-159.3621,21.9549],[-159.4095,21.9776],[-159.3843,21.9598],[-159.378,21.9459],[-159.3752,21.946],[-159.3748,21.9471],[-159.373,21.9479],[-159.3694,21.9477],[-159.3658,21.9466],[-159.3633,21.9467],[-159.3619,21.9483],[-159.3623,21.9503],[-159.3609,21.9513]]]}}]}